,P_arrival_sample,P_arrival_time,Pg_arrival_sample,Pg_arrival_time,Pn_arrival_sample,Pn_arrival_time,S_arrival_sample,S_arrival_time,Sg_arrival_sample,Sg_arrival_time,Sn_arrival_sample,Sn_arrival_time,channels,noise_rms,p_rms,path_azimuth_deg,path_ep_distance_deg,path_takeoff_angle_deg,s_rms,source_depth_km,source_id,source_latitude_deg,source_longitude_deg,source_magnitude,source_origin_time,station_code,station_elevation_m,station_latitude_deg,station_longitude_deg,station_network_code,trace_category,trace_start_time,filename,example_name
95,NaN,NaN,NaN,NaN,9466.046199999999,2018-07-28T16:42:08.120000Z,NaN,NaN,NaN,NaN,15048.046199999999,2018-07-28T16:43:03.940000Z,['BH1' 'BH2' 'BHZ'],10.523159079693336,10.220884574037946,122.549,5.011,NaN,10.73810458538256,0.0,origid=613309238,-6.7137,142.8799,3.6,2018-07-28T16:40:52.330000Z,PMG,90.0,-9.4047,147.1597,IU,earthquake,2018-07-28T16:40:33.459538Z,100_CREW.hdf5,IU.PMG.BH_origid=613309238
96,10469.046199999999,2018-07-30T04:33:35.090000Z,NaN,NaN,NaN,NaN,17562.0462,2018-07-30T04:34:46.020000Z,NaN,NaN,NaN,NaN,['BH1' 'BH2' 'BHZ'],6.059262723071878,8.466115235970879,225.628,6.401,NaN,10.627878082068934,97.7,origid=613309401,-4.9211,151.7918,3.3,2018-07-30T04:32:02.210000Z,PMG,90.0,-9.4047,147.1597,IU,earthquake,2018-07-30T04:31:50.399538Z,100_CREW.hdf5,IU.PMG.BH_origid=613309401
97,4660.0462,2018-08-01T19:30:02.720000Z,NaN,NaN,NaN,NaN,6865.046200000001,2018-08-01T19:30:24.770000Z,NaN,NaN,NaN,NaN,['BH1' 'BH2' 'BHZ'],5.689600341165617,6.962260093083249,166.64,1.731,NaN,11.96871239825143,114.5,origid=613309629,-7.7118,146.7538,2.6,2018-08-01T19:29:32.100000Z,PMG,90.0,-9.4047,147.1597,IU,earthquake,2018-08-01T19:29:16.119538Z,100_CREW.hdf5,IU.PMG.BH_origid=613309629
98,11521.0462,2018-08-01T21:00:07.520000Z,NaN,NaN,NaN,NaN,16846.0462,2018-08-01T21:01:00.770000Z,NaN,NaN,NaN,NaN,['BH1' 'BH2' 'BHZ'],11.033378354980272,12.83477106019327,228.86,4.7360000000000015,NaN,8.378377706335584,83.4,origid=613309639,-6.2844,150.77200000000005,3.3,2018-08-01T20:58:58.000000Z,PMG,90.0,-9.4047,147.1597,IU,earthquake,2018-08-01T20:58:12.309538Z,100_CREW.hdf5,IU.PMG.BH_origid=613309639
99,10676.0462,2018-08-08T16:24:47.140000Z,NaN,NaN,NaN,NaN,16589.0462,2018-08-08T16:25:46.270000Z,NaN,NaN,NaN,NaN,['BH1' 'BH2' 'BHZ'],9.72869525322451,10.448493779511935,222.113,5.198,NaN,14.480834580594378,86.4,origid=613310364,-5.5381,150.6888,2.6,2018-08-08T16:23:31.550000Z,PMG,90.0,-9.4047,147.1597,IU,earthquake,2018-08-08T16:23:00.379538Z,100_CREW.hdf5,IU.PMG.BH_origid=613310364
100,10539.0464,2018-08-08T18:32:10.520000Z,NaN,NaN,NaN,NaN,16479.0464,2018-08-08T18:33:09.920000Z,NaN,NaN,NaN,NaN,['BH1' 'BH2' 'BHZ'],9.157385554726812,12.310756527185626,224.768,5.17,NaN,14.481172562564891,60.0,origid=613310375,-5.7262,150.8462,3.3,2018-08-08T18:30:55.470000Z,PMG,90.0,-9.4047,147.1597,IU,earthquake,2018-08-08T18:30:25.129536Z,100_CREW.hdf5,IU.PMG.BH_origid=613310375
101,10052.0461,2018-08-16T07:28:45.820000Z,NaN,NaN,NaN,NaN,17837.0461,2018-08-16T07:30:03.670000Z,NaN,NaN,NaN,NaN,['BH1' 'BH2' 'BHZ'],7.7365515768737785,12.198548424542555,224.575,7.164,NaN,13.36111270684085,106.0,origid=613310918,-4.2929,152.2482,3.2,2018-08-16T07:27:02.300000Z,PMG,90.0,-9.4047,147.1597,IU,earthquake,2018-08-16T07:27:05.299539Z,100_CREW.hdf5,IU.PMG.BH_origid=613310918
102,11794.046199999999,2018-08-17T12:21:25.590000Z,NaN,NaN,NaN,NaN,15324.0462,2018-08-17T12:22:00.890000Z,NaN,NaN,NaN,NaN,['BH1' 'BH2' 'BHZ'],1.5648774691268594,2.8550538238069048,188.284,2.906,NaN,7.950317973363528,109.6,origid=613311173,-6.5124,147.5831,3.4,2018-08-17T12:20:41.080000Z,PMG,90.0,-9.4047,147.1597,IU,earthquake,2018-08-17T12:19:27.649538Z,100_CREW.hdf5,IU.PMG.BH_origid=613311173
103,11500.0462,2018-08-19T10:06:50.440000Z,NaN,NaN,NaN,NaN,15528.0462,2018-08-19T10:07:30.720000Z,NaN,NaN,NaN,NaN,['BH1' 'BH2' 'BHZ'],3.974624268058854,5.989233738685505,159.754,3.618,NaN,12.488200229249554,81.6,origid=613312738,-5.9917,145.891,3.4,2018-08-19T10:05:55.130000Z,PMG,90.0,-9.4047,147.1597,IU,earthquake,2018-08-19T10:04:55.439538Z,100_CREW.hdf5,IU.PMG.BH_origid=613312738
104,NaN,NaN,NaN,NaN,11439.0462,2018-08-19T19:09:17.520000Z,NaN,NaN,NaN,NaN,15494.046199999999,2018-08-19T19:09:58.070000Z,['BH1' 'BH2' 'BHZ'],8.887601935738434,8.429352151370367,199.713,4.081,NaN,11.252172661319594,0.0,origid=613313120,-5.5415,148.553,3.5,2018-08-19T19:08:14.870000Z,PMG,90.0,-9.4047,147.1597,IU,earthquake,2018-08-19T19:07:23.129538Z,100_CREW.hdf5,IU.PMG.BH_origid=613313120
105,11472.0462,2018-08-21T16:57:48.160000Z,NaN,NaN,NaN,NaN,17383.0462,2018-08-21T16:58:47.270000Z,NaN,NaN,NaN,NaN,['BH1' 'BH2' 'BHZ'],13.992831785067184,11.90552274616817,220.471,5.2410000000000005,NaN,8.164708971212518,73.4,origid=613314249,-5.4052,150.6037,3.0,2018-08-21T16:56:31.840000Z,PMG,90.0,-9.4047,147.1597,IU,earthquake,2018-08-21T16:55:53.439538Z,100_CREW.hdf5,IU.PMG.BH_origid=613314249
106,NaN,NaN,NaN,NaN,11325.0462,2018-08-22T16:51:48.490000Z,NaN,NaN,NaN,NaN,18275.0462,2018-08-22T16:52:57.990000Z,['BH1' 'BH2' 'BHZ'],7.064875390139201,9.77503561130892,228.772,6.4270000000000005,NaN,17.945019256003917,0.0,origid=613314852,-5.1664,152.0534,3.6,2018-08-22T16:50:10.480000Z,PMG,90.0,-9.4047,147.1597,IU,earthquake,2018-08-22T16:49:55.239538Z,100_CREW.hdf5,IU.PMG.BH_origid=613314852
107,11165.0462,2018-08-31T14:16:46.770000Z,NaN,NaN,NaN,NaN,16982.0462,2018-08-31T14:17:44.940000Z,NaN,NaN,NaN,NaN,['BH1' 'BH2' 'BHZ'],9.770563650534845,10.254635811203954,226.406,5.171,NaN,15.348743432566579,57.2,origid=613315655,-5.8327,150.9519,3.0,2018-08-31T14:15:30.870000Z,PMG,90.0,-9.4047,147.1597,IU,earthquake,2018-08-31T14:14:55.119538Z,100_CREW.hdf5,IU.PMG.BH_origid=613315655
108,9317.0462,2018-08-30T08:34:12.570000Z,NaN,NaN,NaN,NaN,14454.046199999999,2018-08-30T08:35:03.940000Z,NaN,NaN,NaN,NaN,['BH1' 'BH2' 'BHZ'],9.581504786918567,11.8233854126609,165.171,4.474,NaN,10.212675780711233,176.2,origid=613315725,-5.0542,145.9996,3.6,2018-08-30T08:33:04.560000Z,PMG,90.0,-9.4047,147.1597,IU,earthquake,2018-08-30T08:32:39.399538Z,100_CREW.hdf5,IU.PMG.BH_origid=613315725
109,10729.0462,2018-09-02T11:48:12.970000Z,NaN,NaN,NaN,NaN,14636.0462,2018-09-02T11:48:52.040000Z,NaN,NaN,NaN,NaN,['BH1' 'BH2' 'BHZ'],3.500424509479012,5.147561699620531,207.231,3.4760000000000004,NaN,12.7643036207959,48.1,origid=613318533,-6.2979,148.7703,3.5,2018-09-02T11:47:20.040000Z,PMG,90.0,-9.4047,147.1597,IU,earthquake,2018-09-02T11:46:25.679538Z,100_CREW.hdf5,IU.PMG.BH_origid=613318533
110,NaN,NaN,NaN,NaN,11915.0462,2018-09-03T19:02:59.170000Z,NaN,NaN,NaN,NaN,16117.046199999999,2018-09-03T19:03:41.190000Z,['BH1' 'BH2' 'BHZ'],8.528631403162137,7.628980275278999,156.38299999999995,4.05,NaN,10.614926140612859,0.0,origid=613318661,-5.6736,145.5156,3.5,2018-09-03T19:01:54.300000Z,PMG,90.0,-9.4047,147.1597,IU,earthquake,2018-09-03T19:01:00.019538Z,100_CREW.hdf5,IU.PMG.BH_origid=613318661
111,NaN,NaN,NaN,NaN,11478.0462,2018-09-06T19:31:45.340000Z,NaN,NaN,NaN,NaN,17353.0462,2018-09-06T19:32:44.090000Z,['BH1' 'BH2' 'BHZ'],14.11589549051186,11.313509223538745,129.18200000000002,5.006,NaN,17.093408459053915,0.0,origid=613319107,-6.2396,143.2281,3.5,2018-09-06T19:30:28.950000Z,PMG,90.0,-9.4047,147.1597,IU,earthquake,2018-09-06T19:29:50.559538Z,100_CREW.hdf5,IU.PMG.BH_origid=613319107
112,NaN,NaN,NaN,NaN,10825.0462,2018-09-09T02:25:32.070000Z,NaN,NaN,NaN,NaN,15222.0462,2018-09-09T02:26:16.040000Z,['BH1' 'BH2' 'BHZ'],4.218580527645277,5.2341852034328875,214.488,3.675,NaN,12.470276439587417,0.0,origid=613319233,-6.3625,149.2668,3.1,2018-09-09T02:24:32.520000Z,PMG,90.0,-9.4047,147.1597,IU,earthquake,2018-09-09T02:23:43.819538Z,100_CREW.hdf5,IU.PMG.BH_origid=613319233
113,NaN,NaN,NaN,NaN,10433.046199999999,2018-09-09T15:15:15.970000Z,NaN,NaN,NaN,NaN,16345.046199999999,2018-09-09T15:16:15.090000Z,['BH1' 'BH2' 'BHZ'],10.559089748653621,9.884366996007811,209.239,5.645,NaN,11.588719705119672,0.0,origid=613319286,-4.4557,149.9498,3.3,2018-09-09T15:13:49.920000Z,PMG,90.0,-9.4047,147.1597,IU,earthquake,2018-09-09T15:13:31.639538Z,100_CREW.hdf5,IU.PMG.BH_origid=613319286
114,NaN,NaN,NaN,NaN,11601.0462,2018-09-09T15:52:20.570000Z,NaN,NaN,NaN,NaN,15611.0462,2018-09-09T15:53:00.670000Z,['BH1' 'BH2' 'BHZ'],5.421201842554932,7.704764977171997,208.201,3.813,NaN,11.414912113401684,0.0,origid=613319288,-6.0277,148.984,3.6,2018-09-09T15:51:18.870000Z,PMG,90.0,-9.4047,147.1597,IU,earthquake,2018-09-09T15:50:24.559538Z,100_CREW.hdf5,IU.PMG.BH_origid=613319288
115,9556.0462,2018-09-12T23:14:19.040000Z,NaN,NaN,NaN,NaN,14751.046199999999,2018-09-12T23:15:10.990000Z,NaN,NaN,NaN,NaN,['BH1' 'BH2' 'BHZ'],7.874839508031751,7.449602826758745,212.576,4.595,NaN,17.08972753425781,66.3,origid=613319630,-5.5155,149.6643,3.4,2018-09-12T23:13:11.560000Z,PMG,90.0,-9.4047,147.1597,IU,earthquake,2018-09-12T23:12:43.479538Z,100_CREW.hdf5,IU.PMG.BH_origid=613319630
116,NaN,NaN,NaN,NaN,9201.0462,2018-09-14T08:07:58.520000Z,NaN,NaN,NaN,NaN,12663.046199999999,2018-09-14T08:08:33.140000Z,['BH1' 'BH2' 'BHZ'],5.128581147302977,7.488076070043507,184.359,3.205,NaN,10.423661233879146,0.0,origid=613319764,-6.1893,147.4058,3.5,2018-09-14T08:07:05.860000Z,PMG,90.0,-9.4047,147.1597,IU,earthquake,2018-09-14T08:06:26.509538Z,100_CREW.hdf5,IU.PMG.BH_origid=613319764
117,NaN,NaN,NaN,NaN,10241.046199999999,2018-09-16T15:30:07.190000Z,NaN,NaN,NaN,NaN,16411.0462,2018-09-16T15:31:08.890000Z,['BH1' 'BH2' 'BHZ'],13.42993505910233,10.956773571457731,210.777,6.115,NaN,9.124931627957704,0.0,origid=613319891,-4.1273,150.3255,3.1,2018-09-16T15:28:36.090000Z,PMG,90.0,-9.4047,147.1597,IU,earthquake,2018-09-16T15:28:24.779538Z,100_CREW.hdf5,IU.PMG.BH_origid=613319891
118,NaN,NaN,NaN,NaN,4938.0462,2018-09-24T04:30:22.370000Z,NaN,NaN,NaN,NaN,8338.046199999999,2018-09-24T04:30:56.370000Z,['BH1' 'BH2' 'BHZ'],5.753291741627712,9.525517944736995,194.599,2.799,NaN,12.042216999181356,0.0,origid=613320563,-6.6803,147.8738,3.8,2018-09-24T04:29:34.390000Z,PMG,90.0,-9.4047,147.1597,IU,earthquake,2018-09-24T04:29:32.989538Z,100_CREW.hdf5,IU.PMG.BH_origid=613320563
119,11350.0462,2018-10-12T12:15:07.190000Z,NaN,NaN,NaN,NaN,17255.0462,2018-10-12T12:16:06.240000Z,NaN,NaN,NaN,NaN,['BH1' 'BH2' 'BHZ'],8.772170330751614,9.192725420021024,227.481,5.158,NaN,12.240359412022535,69.6,origid=613322493,-5.9132,151.0097,3.3,2018-10-12T12:13:52.300000Z,PMG,90.0,-9.4047,147.1597,IU,earthquake,2018-10-12T12:13:13.689538Z,100_CREW.hdf5,IU.PMG.BH_origid=613322493
120,NaN,NaN,NaN,NaN,11192.0462,2018-10-12T13:02:54.270000Z,NaN,NaN,NaN,NaN,17144.0462,2018-10-12T13:03:53.790000Z,['BH1' 'BH2' 'BHZ'],4.310249054791712,4.489450664862481,235.726,5.75,NaN,17.697930593174647,0.0,origid=613322497,-6.1722,151.972,3.8,2018-10-12T13:01:26.250000Z,PMG,90.0,-9.4047,147.1597,IU,earthquake,2018-10-12T13:01:02.349538Z,100_CREW.hdf5,IU.PMG.BH_origid=613322497
121,NaN,NaN,NaN,NaN,9598.0462,2018-10-19T02:56:28.370000Z,NaN,NaN,NaN,NaN,11490.0462,2018-10-19T02:56:47.290000Z,['BH1' 'BH2' 'BHZ'],0.47401038988160804,4.646297705736033,268.193,1.453,NaN,10.819729862068412,0.0,origid=613323252,-9.3631,148.6305,3.4,2018-10-19T02:55:59.930000Z,PMG,90.0,-9.4047,147.1597,IU,earthquake,2018-10-19T02:54:52.389538Z,100_CREW.hdf5,IU.PMG.BH_origid=613323252
122,11349.046199999999,2018-10-21T12:00:30.570000Z,NaN,NaN,NaN,NaN,17344.0462,2018-10-21T12:01:30.520000Z,NaN,NaN,NaN,NaN,['BH1' 'BH2' 'BHZ'],10.379854639984593,11.74628802675591,223.955,5.234,NaN,11.903221445006588,82.3,origid=613323529,-5.6275,150.8384,2.9,2018-10-21T11:59:14.700000Z,PMG,90.0,-9.4047,147.1597,IU,earthquake,2018-10-21T11:58:37.079538Z,100_CREW.hdf5,IU.PMG.BH_origid=613323529
123,NaN,NaN,NaN,NaN,11569.046199999999,2018-10-21T17:07:56.270000Z,NaN,NaN,NaN,NaN,17794.0462,2018-10-21T17:08:58.520000Z,['BH1' 'BH2' 'BHZ'],6.054946548283484,7.453228103576056,226.906,5.726,NaN,10.747698654175014,0.0,origid=613323551,-5.487,151.3934,3.4,2018-10-21T17:06:27.990000Z,PMG,90.0,-9.4047,147.1597,IU,earthquake,2018-10-21T17:06:00.579538Z,100_CREW.hdf5,IU.PMG.BH_origid=613323551
124,NaN,NaN,NaN,NaN,10669.046199999999,2018-10-23T21:25:00.920000Z,NaN,NaN,NaN,NaN,14961.0462,2018-10-23T21:25:43.840000Z,['BH1' 'BH2' 'BHZ'],2.3104193797740056,3.4861091796191928,215.784,3.744,NaN,10.988134013007025,0.0,origid=613323629,-6.3546,149.3767,3.7,2018-10-23T21:24:00.450000Z,PMG,90.0,-9.4047,147.1597,IU,earthquake,2018-10-23T21:23:14.229538Z,100_CREW.hdf5,IU.PMG.BH_origid=613323629
125,11954.0461,2018-10-27T22:04:28.170000Z,NaN,NaN,NaN,NaN,16366.0461,2018-10-27T22:05:12.290000Z,NaN,NaN,NaN,NaN,['BH1' 'BH2' 'BHZ'],5.166915759644541,9.309905378820927,189.448,3.667,NaN,11.139546238594024,187.4,origid=613324150,-5.7661,147.7686,3.2,2018-10-27T22:03:30.070000Z,PMG,90.0,-9.4047,147.1597,IU,earthquake,2018-10-27T22:02:28.629539Z,100_CREW.hdf5,IU.PMG.BH_origid=613324150
126,NaN,NaN,NaN,NaN,10933.046199999999,2018-10-28T17:50:06.540000Z,NaN,NaN,NaN,NaN,16613.0462,2018-10-28T17:51:03.340000Z,['BH1' 'BH2' 'BHZ'],3.8720453237644343,8.950382222222284,211.551,5.362,NaN,10.914346064418556,0.0,origid=613324267,-4.8146,149.9995,3.6,2018-10-28T17:48:44.570000Z,PMG,90.0,-9.4047,147.1597,IU,earthquake,2018-10-28T17:48:17.209538Z,100_CREW.hdf5,IU.PMG.BH_origid=613324267
127,9256.0461,2018-11-14T13:08:56.790000Z,NaN,NaN,NaN,NaN,12406.0461,2018-11-14T13:09:28.290000Z,NaN,NaN,NaN,NaN,['BH1' 'BH2' 'BHZ'],1.9113801250790179,4.301461182410537,188.349,2.3080000000000003,NaN,8.51378507837423,116.9,origid=613325818,-7.1082,147.4985,3.4,2018-11-14T13:08:21.280000Z,PMG,90.0,-9.4047,147.1597,IU,earthquake,2018-11-14T13:07:24.229539Z,100_CREW.hdf5,IU.PMG.BH_origid=613325818
128,NaN,NaN,NaN,NaN,9258.046199999999,2018-11-17T08:00:53.770000Z,NaN,NaN,NaN,NaN,13220.046199999999,2018-11-17T08:01:33.390000Z,['BH1' 'BH2' 'BHZ'],3.8938924591357464,6.480245317603447,224.724,3.54,NaN,14.074548892422143,0.0,origid=613326078,-6.8820000000000014,149.6829,3.2,2018-11-17T07:59:55.220000Z,PMG,90.0,-9.4047,147.1597,IU,earthquake,2018-11-17T07:59:21.189538Z,100_CREW.hdf5,IU.PMG.BH_origid=613326078
129,NaN,NaN,NaN,NaN,11593.0462,2018-11-17T08:51:31.270000Z,NaN,NaN,NaN,NaN,15500.0462,2018-11-17T08:52:10.340000Z,['BH1' 'BH2' 'BHZ'],1.9471067587525661,5.184191727201379,209.407,3.377,NaN,14.394743311067229,0.0,origid=613326081,-6.4487,148.8385,3.3,2018-11-17T08:50:35.400000Z,PMG,90.0,-9.4047,147.1597,IU,earthquake,2018-11-17T08:49:35.339538Z,100_CREW.hdf5,IU.PMG.BH_origid=613326081
130,11989.0461,2018-11-18T07:49:42.870000Z,NaN,NaN,NaN,NaN,16371.046100000001,2018-11-18T07:50:26.690000Z,NaN,NaN,NaN,NaN,['BH1' 'BH2' 'BHZ'],2.8134189173424087,6.727524052326725,186.073,3.76,NaN,13.078418130164119,188.8,origid=613326190,-5.6434,147.5618,3.3,2018-11-18T07:48:42.770000Z,PMG,90.0,-9.4047,147.1597,IU,earthquake,2018-11-18T07:47:42.979539Z,100_CREW.hdf5,IU.PMG.BH_origid=613326190
131,9963.046199999999,2018-11-25T11:34:15.620000Z,NaN,NaN,NaN,NaN,15920.046199999999,2018-11-25T11:35:15.190000Z,NaN,NaN,NaN,NaN,['BH1' 'BH2' 'BHZ'],5.949708838940589,7.194824187231022,220.274,5.2810000000000015,NaN,13.848167346021773,80.2,origid=613327022,-5.3625,150.6162,3.2,2018-11-25T11:32:58.720000Z,PMG,90.0,-9.4047,147.1597,IU,earthquake,2018-11-25T11:32:35.989538Z,100_CREW.hdf5,IU.PMG.BH_origid=613327022
132,9855.046199999999,2018-11-30T07:06:28.840000Z,NaN,NaN,NaN,NaN,13365.0462,2018-11-30T07:07:03.940000Z,NaN,NaN,NaN,NaN,['BH1' 'BH2' 'BHZ'],6.845576407019808,8.198243355223708,172.18400000000003,3.033,NaN,10.143746752232966,75.0,origid=613327351,-6.3822,146.7412,3.1,2018-11-30T07:05:42.620000Z,PMG,90.0,-9.4047,147.1597,IU,earthquake,2018-11-30T07:04:50.289538Z,100_CREW.hdf5,IU.PMG.BH_origid=613327351
133,9924.046199999999,2018-12-07T22:21:47.470000Z,NaN,NaN,NaN,NaN,14219.046199999999,2018-12-07T22:22:30.420000Z,NaN,NaN,NaN,NaN,['BH1' 'BH2' 'BHZ'],5.873042244259929,9.21740086508515,161.174,3.559,NaN,13.560252204809547,152.3,origid=613328541,-6.017,145.9957,2.7,2018-12-07T22:20:52.880000Z,PMG,90.0,-9.4047,147.1597,IU,earthquake,2018-12-07T22:20:08.229538Z,100_CREW.hdf5,IU.PMG.BH_origid=613328541
134,10452.046199999999,2018-12-12T21:14:15.370000Z,NaN,NaN,NaN,NaN,14994.046199999999,2018-12-12T21:15:00.790000Z,NaN,NaN,NaN,NaN,['BH1' 'BH2' 'BHZ'],9.260126998601583,12.157684106523591,180.519,4.01,NaN,10.34255567838767,163.1,origid=613328943,-5.3702,147.1958,2.7,2018-12-12T21:13:13.060000Z,PMG,90.0,-9.4047,147.1597,IU,earthquake,2018-12-12T21:12:30.849538Z,100_CREW.hdf5,IU.PMG.BH_origid=613328943
135,NaN,NaN,NaN,NaN,9898.0462,2018-12-18T11:40:00.190000Z,NaN,NaN,NaN,NaN,16383.0462,2018-12-18T11:41:05.040000Z,['BH1' 'BH2' 'BHZ'],11.196034994010732,9.432934469422403,225.444,5.63,NaN,9.627318378713943,0.0,origid=613329502,-5.4474,151.2214,3.1,2018-12-18T11:38:33.000000Z,PMG,90.0,-9.4047,147.1597,IU,earthquake,2018-12-18T11:38:21.209538Z,100_CREW.hdf5,IU.PMG.BH_origid=613329502
136,NaN,NaN,NaN,NaN,9765.0462,2018-12-18T19:17:09.440000Z,NaN,NaN,NaN,NaN,16043.0462,2018-12-18T19:18:12.220000Z,['BH1' 'BH2' 'BHZ'],11.535192655324872,14.301338459909344,221.787,5.694,NaN,10.991697616097287,0.0,origid=613329534,-5.1477,151.0006,3.6,2018-12-18T19:15:41.910000Z,PMG,90.0,-9.4047,147.1597,IU,earthquake,2018-12-18T19:15:31.789538Z,100_CREW.hdf5,IU.PMG.BH_origid=613329534
137,9587.046100000001,2018-12-18T20:52:44.290000Z,NaN,NaN,NaN,NaN,15865.046100000001,2018-12-18T20:53:47.070000Z,NaN,NaN,NaN,NaN,['BH1' 'BH2' 'BHZ'],6.891068791620682,8.57139751407071,231.513,5.447,NaN,11.317557142690594,72.3,origid=613329541,-6.0146,151.4772,3.2,2018-12-18T20:51:25.910000Z,PMG,90.0,-9.4047,147.1597,IU,earthquake,2018-12-18T20:51:08.419539Z,100_CREW.hdf5,IU.PMG.BH_origid=613329541
138,11713.046199999999,2018-12-26T11:33:53.880000Z,NaN,NaN,NaN,NaN,18449.0462,2018-12-26T11:35:01.240000Z,NaN,NaN,NaN,NaN,['BH1' 'BH2' 'BHZ'],10.993319878118777,12.897373906445326,212.272,5.725,NaN,10.471215900973172,153.3,origid=613330593,-4.5428,150.2533,2.7,2018-12-26T11:32:31.570000Z,PMG,90.0,-9.4047,147.1597,IU,earthquake,2018-12-26T11:31:56.749538Z,100_CREW.hdf5,IU.PMG.BH_origid=613330593
139,9664.0462,2018-12-31T08:59:00.570000Z,NaN,NaN,NaN,NaN,14064.0462,2018-12-31T08:59:44.570000Z,NaN,NaN,NaN,NaN,['BH1' 'BH2' 'BHZ'],9.804885091152975,8.271032724128649,188.341,3.5,NaN,13.444010841719763,222.2,origid=613331145,-5.9214,147.6732,3.3,2018-12-31T08:58:03.220000Z,PMG,90.0,-9.4047,147.1597,IU,earthquake,2018-12-31T08:57:23.929538Z,100_CREW.hdf5,IU.PMG.BH_origid=613331145
140,NaN,NaN,NaN,NaN,10026.046100000001,2018-12-31T13:54:52.470000Z,NaN,NaN,NaN,NaN,15096.046100000001,2018-12-31T13:55:43.170000Z,['BH1' 'BH2' 'BHZ'],11.356827671578676,10.470887867338236,224.141,4.715,NaN,15.235273688569746,0.0,origid=613331173,-6.0128,150.4846,3.4,2018-12-31T13:53:38.370000Z,PMG,90.0,-9.4047,147.1597,IU,earthquake,2018-12-31T13:53:12.209539Z,100_CREW.hdf5,IU.PMG.BH_origid=613331173
141,10714.0462,2018-01-02T02:50:39.720000Z,NaN,NaN,NaN,NaN,14809.0462,2018-01-02T02:51:20.670000Z,NaN,NaN,NaN,NaN,['BH1' 'BH2' 'BHZ'],6.368683186763616,8.252527397538483,176.134,3.614,NaN,8.45649633528321,78.0,origid=614077772,-5.7774,146.9123,3.37,2018-01-02T02:49:45.680000Z,PMG,90.0,-9.4047,147.1597,IU,earthquake,2018-01-02T02:48:52.579538Z,100_CREW.hdf5,IU.PMG.BH_origid=614077772
142,5856.0462,2018-01-05T15:09:58.590000Z,NaN,NaN,NaN,NaN,8739.0462,2018-01-05T15:10:27.420000Z,NaN,NaN,NaN,NaN,['BH1' 'BH2' 'BHZ'],2.291087235366153,4.221333453052194,210.826,2.405,NaN,10.774867489958835,35.0,origid=614078125,-7.3295,148.4077,3.39,2018-01-05T15:09:20.880000Z,PMG,90.0,-9.4047,147.1597,IU,earthquake,2018-01-05T15:09:00.029538Z,100_CREW.hdf5,IU.PMG.BH_origid=614078125
143,11315.0462,2018-01-05T15:31:18.920000Z,NaN,NaN,NaN,NaN,18077.0462,2018-01-05T15:32:26.540000Z,NaN,NaN,NaN,NaN,['BH1' 'BH2' 'BHZ'],2.5483944715503934,4.025539839970346,223.304,6.046,NaN,13.07080983198605,129.0,origid=614078128,-4.9947,151.3576,3.75,2018-01-05T15:29:50.260000Z,PMG,90.0,-9.4047,147.1597,IU,earthquake,2018-01-05T15:29:25.769538Z,100_CREW.hdf5,IU.PMG.BH_origid=614078128
