,P_arrival_sample,P_arrival_time,Pg_arrival_sample,Pg_arrival_time,Pn_arrival_sample,Pn_arrival_time,S_arrival_sample,S_arrival_time,Sg_arrival_sample,Sg_arrival_time,Sn_arrival_sample,Sn_arrival_time,channels,noise_rms,p_rms,path_azimuth_deg,path_ep_distance_deg,path_takeoff_angle_deg,s_rms,source_depth_km,source_id,source_latitude_deg,source_longitude_deg,source_magnitude,source_origin_time,station_code,station_elevation_m,station_latitude_deg,station_longitude_deg,station_network_code,trace_category,trace_start_time,filename,example_name
144,4463.0462,2018-01-05T16:37:21.200000Z,NaN,NaN,NaN,NaN,8937.0462,2018-01-05T16:38:05.940000Z,NaN,NaN,NaN,NaN,['BH1' 'BH2' 'BHZ'],5.263422621329823,6.48514330014358,178.622,3.847,NaN,10.998187090360721,195.0,origid=614078133,-5.5355,147.0653,4.44,2018-01-05T16:36:23.650000Z,PMG,90.0,-9.4047,147.1597,IU,earthquake,2018-01-05T16:36:36.569538Z,100_CREW.hdf5,IU.PMG.BH_origid=614078133
145,NaN,NaN,NaN,NaN,9302.046199999999,2018-01-06T17:43:24.820000Z,NaN,NaN,NaN,NaN,17356.0462,2018-01-06T17:44:45.360000Z,['BH1' 'BH2' 'BHZ'],11.805473212030241,11.286177896300366,232.242,7.5779999999999985,NaN,11.526141891689749,50.0,origid=614078228,-4.7706,153.2244,4.29,2018-01-06T17:41:35.080000Z,PMG,90.0,-9.4047,147.1597,IU,earthquake,2018-01-06T17:41:51.799538Z,100_CREW.hdf5,IU.PMG.BH_origid=614078228
146,NaN,NaN,NaN,NaN,11221.0462,2018-01-06T18:16:48.970000Z,NaN,NaN,NaN,NaN,19056.0462,2018-01-06T18:18:07.320000Z,['BH1' 'BH2' 'BHZ'],8.149635151763317,10.661222518832128,241.417,7.0760000000000005,NaN,13.702690595249862,32.0,origid=614078233,-6.0417,153.4524,4.53,2018-01-06T18:15:07.480000Z,PMG,90.0,-9.4047,147.1597,IU,earthquake,2018-01-06T18:14:56.759538Z,100_CREW.hdf5,IU.PMG.BH_origid=614078233
147,11844.0461,2018-01-13T23:07:16.690000Z,NaN,NaN,11703.0461,2018-01-13T23:07:15.280000Z,15882.0461,2018-01-13T23:07:57.070000Z,NaN,NaN,15698.0461,2018-01-13T23:07:55.230000Z,['BH1' 'BH2' 'BHZ'],2.614958359890684,3.6189689067273907,200.976,3.428,NaN,11.03245926694465,65.0,origid=614079040,-6.1862,148.40200000000004,4.14,2018-01-13T23:06:25.230000Z,PMG,90.0,-9.4047,147.1597,IU,earthquake,2018-01-13T23:05:18.249539Z,100_CREW.hdf5,IU.PMG.BH_origid=614079040
148,6067.0462,2018-01-14T21:55:50.390000Z,NaN,NaN,6021.0462,2018-01-14T21:55:49.930000Z,11697.0462,2018-01-14T21:56:46.690000Z,NaN,NaN,NaN,NaN,['BH1' 'BH2' 'BHZ'],0.14475951554923858,4.5324863523010706,154.454,5.067,NaN,8.32084201648803,68.1195,origid=614079150,-4.8094,144.9469,5.44,2018-01-14T21:54:35.990000Z,PMG,90.0,-9.4047,147.1597,IU,earthquake,2018-01-14T21:54:49.719538Z,100_CREW.hdf5,IU.PMG.BH_origid=614079150
149,11117.0462,2018-01-14T22:09:59.790000Z,NaN,NaN,11155.046199999999,2018-01-14T22:10:00.170000Z,16800.0462,2018-01-14T22:10:56.620000Z,NaN,NaN,NaN,NaN,['BH1' 'BH2' 'BHZ'],6.000358069116129,10.047696643648203,157.126,5.2029999999999985,NaN,11.830342648751271,38.0,origid=614079153,-4.5846,145.1116,4.1,2018-01-14T22:08:43.180000Z,PMG,90.0,-9.4047,147.1597,IU,earthquake,2018-01-14T22:08:08.619538Z,100_CREW.hdf5,IU.PMG.BH_origid=614079153
150,5516.046200000001,2018-01-16T03:01:40.660000Z,NaN,NaN,5478.0462,2018-01-16T03:01:40.280000Z,9174.046199999999,2018-01-16T03:02:17.240000Z,NaN,NaN,NaN,NaN,['BH1' 'BH2' 'BHZ'],1.6484305016151029,6.449729446389775,168.47299999999996,3.233,NaN,10.129982941351235,100.0,origid=614079259,-6.218,146.5046,4.16,2018-01-16T03:00:51.500000Z,PMG,90.0,-9.4047,147.1597,IU,earthquake,2018-01-16T03:00:45.499538Z,100_CREW.hdf5,IU.PMG.BH_origid=614079259
151,10366.046199999999,2018-01-16T13:03:29.140000Z,NaN,NaN,10298.0462,2018-01-16T13:03:28.460000Z,16441.0462,2018-01-16T13:04:29.890000Z,NaN,NaN,NaN,NaN,['BH1' 'BH2' 'BHZ'],0.36397395511438657,1.0764297387930226,147.341,5.581,NaN,5.844967312484149,98.60589999999999,origid=614079308,-4.6856,144.1102,5.59,2018-01-16T13:02:08.750000Z,PMG,90.0,-9.4047,147.1597,IU,earthquake,2018-01-16T13:01:45.479538Z,100_CREW.hdf5,IU.PMG.BH_origid=614079308
152,11038.046199999999,2018-01-16T16:12:35.340000Z,NaN,NaN,10962.0462,2018-01-16T16:12:34.580000Z,16183.0462,2018-01-16T16:13:26.790000Z,NaN,NaN,NaN,NaN,['BH1' 'BH2' 'BHZ'],6.356178547377545,6.845152998647166,233.378,4.934,NaN,14.191678450115402,10.0,origid=614079321,-6.4615,151.1708,4.2,2018-01-16T16:11:19.830000Z,PMG,90.0,-9.4047,147.1597,IU,earthquake,2018-01-16T16:10:44.959538Z,100_CREW.hdf5,IU.PMG.BH_origid=614079321
153,10134.0462,2018-01-16T22:40:31.670000Z,NaN,NaN,NaN,NaN,14641.046199999999,2018-01-16T22:41:16.740000Z,NaN,NaN,NaN,NaN,['BH1' 'BH2' 'BHZ'],3.6883171006025384,4.614370521686935,167.391,4.183,NaN,13.480456968800034,100.0,origid=614079352,-5.2987,146.2344,3.91,2018-01-16T22:39:28.240000Z,PMG,90.0,-9.4047,147.1597,IU,earthquake,2018-01-16T22:38:50.329538Z,100_CREW.hdf5,IU.PMG.BH_origid=614079352
154,9972.0462,2018-01-17T16:59:19.900000Z,NaN,NaN,9821.0462,2018-01-17T16:59:18.390000Z,NaN,NaN,NaN,NaN,15271.0462,2018-01-17T17:00:12.890000Z,['BH1' 'BH2' 'BHZ'],7.15783380866036,6.965502983006458,236.413,4.756,NaN,15.610210436309966,40.0,origid=614079427,-6.7765,151.1731,4.38,2018-01-17T16:58:09.820000Z,PMG,90.0,-9.4047,147.1597,IU,earthquake,2018-01-17T16:57:40.179538Z,100_CREW.hdf5,IU.PMG.BH_origid=614079427
155,NaN,NaN,NaN,NaN,9851.0462,2018-01-19T22:29:02.390000Z,NaN,NaN,NaN,NaN,15176.046199999999,2018-01-19T22:29:55.640000Z,['BH1' 'BH2' 'BHZ'],7.153603917658538,8.813211370703488,237.139,4.79,NaN,13.050868007936147,35.0,origid=614079664,-6.8093,151.2356,4.45,2018-01-19T22:27:52.610000Z,PMG,90.0,-9.4047,147.1597,IU,earthquake,2018-01-19T22:27:23.879538Z,100_CREW.hdf5,IU.PMG.BH_origid=614079664
156,11278.0462,2018-01-27T13:53:59.920000Z,NaN,NaN,11095.0462,2018-01-27T13:53:58.090000Z,15430.0462,2018-01-27T13:54:41.440000Z,NaN,NaN,NaN,NaN,['BH1' 'BH2' 'BHZ'],13.023539515606592,12.056868333802976,186.717,3.866,NaN,11.107411633198536,100.0,origid=614080770,-5.5421,147.6169,3.77,2018-01-27T13:52:57.300000Z,PMG,90.0,-9.4047,147.1597,IU,earthquake,2018-01-27T13:52:07.139538Z,100_CREW.hdf5,IU.PMG.BH_origid=614080770
157,3906.0462,2018-01-28T06:23:00.190000Z,NaN,NaN,3934.0462,2018-01-28T06:23:00.470000Z,8219.046199999999,2018-01-28T06:23:43.320000Z,NaN,NaN,NaN,NaN,['BH1' 'BH2' 'BHZ'],6.086186403014172,10.240120828922187,202.266,3.631,NaN,14.155263639679093,65.0,origid=614080872,-6.0259,148.5527,3.96,2018-01-28T06:22:06.430000Z,PMG,90.0,-9.4047,147.1597,IU,earthquake,2018-01-28T06:22:21.129538Z,100_CREW.hdf5,IU.PMG.BH_origid=614080872
158,5917.0462,2018-01-29T10:48:01.840000Z,NaN,NaN,5935.0462,2018-01-29T10:48:02.020000Z,9920.0462,2018-01-29T10:48:41.870000Z,NaN,NaN,NaN,NaN,['BH1' 'BH2' 'BHZ'],2.314041718882435,4.2356024422434135,186.022,3.343,NaN,12.438573085188365,79.4753,origid=614081006,-6.0601,147.5143,4.89,2018-01-29T10:47:12.640000Z,PMG,90.0,-9.4047,147.1597,IU,earthquake,2018-01-29T10:47:02.669538Z,100_CREW.hdf5,IU.PMG.BH_origid=614081006
159,9966.046199999999,2018-01-30T16:41:19.690000Z,NaN,NaN,NaN,NaN,14981.0462,2018-01-30T16:42:09.840000Z,NaN,NaN,NaN,NaN,['BH1' 'BH2' 'BHZ'],4.1332242854718375,5.809794475281362,156.967,4.3039999999999985,NaN,12.729673847036297,86.0,origid=614081130,-5.4225,145.4537,4.53,2018-01-30T16:40:20.370000Z,PMG,90.0,-9.4047,147.1597,IU,earthquake,2018-01-30T16:39:40.029538Z,100_CREW.hdf5,IU.PMG.BH_origid=614081130
160,10658.046199999999,2018-01-31T03:15:20.840000Z,NaN,NaN,10597.0462,2018-01-31T03:15:20.230000Z,20823.046199999997,2018-01-31T03:17:02.490000Z,NaN,NaN,NaN,NaN,['BH1' 'BH2' 'BHZ'],3.8241539628257954,7.217004801752501,253.823,9.014,NaN,11.40677380249063,53.943599999999996,origid=614081175,-6.9685,155.9306,5.3,2018-01-31T03:13:10.490000Z,PMG,90.0,-9.4047,147.1597,IU,earthquake,2018-01-31T03:13:34.259538Z,100_CREW.hdf5,IU.PMG.BH_origid=614081175
161,4507.0462,2018-01-31T11:50:18.590000Z,NaN,NaN,NaN,NaN,7450.0462,2018-01-31T11:50:48.020000Z,NaN,NaN,NaN,NaN,['BH1' 'BH2' 'BHZ'],0.49420916826038325,3.271582372709199,180.534,2.4930000000000003,NaN,9.957787341297466,88.1242,origid=614081205,-6.8972,147.1825,5.83,2018-01-31T11:49:39.840000Z,PMG,90.0,-9.4047,147.1597,IU,earthquake,2018-01-31T11:49:33.519538Z,100_CREW.hdf5,IU.PMG.BH_origid=614081205
162,10794.0461,2018-02-02T02:06:56.170000Z,NaN,NaN,10753.0461,2018-02-02T02:06:55.760000Z,15454.0461,2018-02-02T02:07:42.770000Z,NaN,NaN,NaN,NaN,['BH1' 'BH2' 'BHZ'],9.087711660588111,11.163520286507907,168.009,4.289,NaN,10.760965954100637,50.0,origid=614142380,-5.1839,146.2567,3.99,2018-02-02T02:05:51.210000Z,PMG,90.0,-9.4047,147.1597,IU,earthquake,2018-02-02T02:05:08.229539Z,100_CREW.hdf5,IU.PMG.BH_origid=614142380
163,2997.0461,2018-02-04T01:33:37.520000Z,NaN,NaN,3027.0461,2018-02-04T01:33:37.820000Z,8767.0461,2018-02-04T01:34:35.220000Z,NaN,NaN,8829.0461,2018-02-04T01:34:35.840000Z,['BH1' 'BH2' 'BHZ'],1.8583265275462322,6.065823844240034,153.1,5.221,NaN,11.35636663483218,92.91489999999999,origid=614142593,-4.7252,144.7678,4.61,2018-02-04T01:32:21.870000Z,PMG,90.0,-9.4047,147.1597,IU,earthquake,2018-02-04T01:33:07.549539Z,100_CREW.hdf5,IU.PMG.BH_origid=614142593
164,4492.0464,2018-02-04T09:44:38.420000Z,NaN,NaN,4444.0464,2018-02-04T09:44:37.940000Z,8697.046400000001,2018-02-04T09:45:20.470000Z,NaN,NaN,NaN,NaN,['BH1' 'BH2' 'BHZ'],1.322925617601587,4.860031037439294,189.512,3.744,NaN,11.808945518780297,150.0,origid=614142627,-5.6903,147.7855,4.39,2018-02-04T09:43:42.020000Z,PMG,90.0,-9.4047,147.1597,IU,earthquake,2018-02-04T09:43:53.499536Z,100_CREW.hdf5,IU.PMG.BH_origid=614142627
165,6192.0462,2018-02-05T15:14:12.190000Z,NaN,NaN,NaN,NaN,10485.046199999999,2018-02-05T15:14:55.120000Z,NaN,NaN,NaN,NaN,['BH1' 'BH2' 'BHZ'],10.773656182318867,12.540656048734288,163.71200000000005,3.898,NaN,10.709307026166748,100.0,origid=614142793,-5.642,146.0519,3.39,2018-02-05T15:13:13.340000Z,PMG,90.0,-9.4047,147.1597,IU,earthquake,2018-02-05T15:13:10.269538Z,100_CREW.hdf5,IU.PMG.BH_origid=614142793
166,9285.046199999999,2018-02-07T21:01:02.060000Z,NaN,NaN,9339.0462,2018-02-07T21:01:02.600000Z,15098.046199999999,2018-02-07T21:02:00.190000Z,NaN,NaN,NaN,NaN,['BH1' 'BH2' 'BHZ'],7.7037396703337,8.840074252745685,149.528,5.122000000000001,NaN,12.585170235444226,50.0,origid=614143144,-4.9696,144.5293,4.58,2018-02-07T20:59:46.990000Z,PMG,90.0,-9.4047,147.1597,IU,earthquake,2018-02-07T20:59:29.209538Z,100_CREW.hdf5,IU.PMG.BH_origid=614143144
167,11763.046199999999,2018-02-08T09:01:24.040000Z,NaN,NaN,11660.046199999999,2018-02-08T09:01:23.010000Z,15041.046199999999,2018-02-08T09:01:56.820000Z,NaN,NaN,NaN,NaN,['BH1' 'BH2' 'BHZ'],1.303921194663463,2.5412541209913697,185.858,2.7,NaN,7.048212923398363,63.0,origid=614143196,-6.7026,147.4382,4.26,2018-02-08T09:00:43.620000Z,PMG,90.0,-9.4047,147.1597,IU,earthquake,2018-02-08T08:59:26.409538Z,100_CREW.hdf5,IU.PMG.BH_origid=614143196
168,NaN,NaN,NaN,NaN,11159.0462,2018-02-09T14:56:22.730000Z,NaN,NaN,NaN,NaN,16205.0462,2018-02-09T14:57:13.190000Z,['BH1' 'BH2' 'BHZ'],9.599404679730654,9.061488757818505,156.905,4.388,NaN,11.40465234168304,50.0,origid=614143356,-5.3468,145.4162,4.18,2018-02-09T14:55:19.160000Z,PMG,90.0,-9.4047,147.1597,IU,earthquake,2018-02-09T14:54:31.139538Z,100_CREW.hdf5,IU.PMG.BH_origid=614143356
169,10329.0462,2018-02-09T15:11:44.440000Z,NaN,NaN,10435.046199999999,2018-02-09T15:11:45.500000Z,15352.0462,2018-02-09T15:12:34.670000Z,NaN,NaN,NaN,NaN,['BH1' 'BH2' 'BHZ'],8.752190953523408,8.702682893295638,159.328,4.3580000000000005,NaN,13.542439011306318,35.0,origid=614143361,-5.3051,145.6014,4.27,2018-02-09T15:10:39.760000Z,PMG,90.0,-9.4047,147.1597,IU,earthquake,2018-02-09T15:10:01.149538Z,100_CREW.hdf5,IU.PMG.BH_origid=614143361
170,11066.046199999999,2018-02-10T21:11:45.350000Z,NaN,NaN,10971.0462,2018-02-10T21:11:44.400000Z,15865.0462,2018-02-10T21:12:33.340000Z,NaN,NaN,NaN,NaN,['BH1' 'BH2' 'BHZ'],5.388755875508155,5.825909932763022,165.045,4.314,NaN,11.67492205373579,150.0,origid=614143500,-5.2126,146.0318,4.2,2018-02-10T21:10:41.690000Z,PMG,90.0,-9.4047,147.1597,IU,earthquake,2018-02-10T21:09:54.689538Z,100_CREW.hdf5,IU.PMG.BH_origid=614143500
171,NaN,NaN,NaN,NaN,10058.046199999999,2018-02-11T05:53:28.240000Z,NaN,NaN,NaN,NaN,18076.0462,2018-02-11T05:54:48.420000Z,['BH1' 'BH2' 'BHZ'],8.301663450484893,8.966411320409943,240.091,7.122000000000001,NaN,9.422582811357527,32.0,origid=614143528,-5.8734,153.4117,4.3,2018-02-11T05:51:45.490000Z,PMG,90.0,-9.4047,147.1597,IU,earthquake,2018-02-11T05:51:47.659538Z,100_CREW.hdf5,IU.PMG.BH_origid=614143528
172,5341.046200000001,2018-02-11T14:41:59.740000Z,NaN,NaN,5322.0462,2018-02-11T14:41:59.550000Z,8766.046199999999,2018-02-11T14:42:33.990000Z,NaN,NaN,NaN,NaN,['BH1' 'BH2' 'BHZ'],2.5617579420115173,4.435804777819055,166.96599999999995,2.932,NaN,9.996006684759353,110.0,origid=614143570,-6.5316,146.4891,4.32,2018-02-11T14:41:14.100000Z,PMG,90.0,-9.4047,147.1597,IU,earthquake,2018-02-11T14:41:06.329538Z,100_CREW.hdf5,IU.PMG.BH_origid=614143570
173,NaN,NaN,NaN,NaN,9864.0462,2018-02-17T15:15:47.570000Z,NaN,NaN,NaN,NaN,18771.0462,2018-02-17T15:17:16.640000Z,['BH1' 'BH2' 'BHZ'],2.547032191840016,3.4343954642742203,246.901,7.73,NaN,16.66715384876034,35.0,origid=614144262,-6.4117,154.3616,4.91,2018-02-17T15:13:56.200000Z,PMG,90.0,-9.4047,147.1597,IU,earthquake,2018-02-17T15:14:08.929538Z,100_CREW.hdf5,IU.PMG.BH_origid=614144262
174,9798.0464,2018-02-18T20:40:04.940000Z,NaN,NaN,NaN,NaN,13418.0464,2018-02-18T20:40:41.140000Z,NaN,NaN,NaN,NaN,['BH1' 'BH2' 'BHZ'],2.465630212208224,2.7812861537449876,174.30700000000004,3.209,NaN,11.180309306979504,100.0,origid=614144400,-6.1929,146.8366,3.5,2018-02-18T20:39:16.140000Z,PMG,90.0,-9.4047,147.1597,IU,earthquake,2018-02-18T20:38:26.959536Z,100_CREW.hdf5,IU.PMG.BH_origid=614144400
175,NaN,NaN,NaN,NaN,9245.0461,2018-02-19T02:51:34.670000Z,NaN,NaN,NaN,NaN,14867.0461,2018-02-19T02:52:30.890000Z,['BH1' 'BH2' 'BHZ'],6.10251876684258,10.312047345521346,153.795,4.98,NaN,14.758384766045992,100.0,origid=614144432,-4.9139,144.9327,3.3,2018-02-19T02:50:22.830000Z,PMG,90.0,-9.4047,147.1597,IU,earthquake,2018-02-19T02:50:02.219539Z,100_CREW.hdf5,IU.PMG.BH_origid=614144432
176,NaN,NaN,NaN,NaN,10412.0462,2018-02-20T20:27:11.090000Z,NaN,NaN,NaN,NaN,16547.0462,2018-02-20T20:28:12.440000Z,['BH1' 'BH2' 'BHZ'],6.923688283710076,7.889335262353064,157.635,5.516,NaN,12.500156045839555,38.0,origid=614144651,-4.276,145.0348,3.27,2018-02-20T20:25:51.250000Z,PMG,90.0,-9.4047,147.1597,IU,earthquake,2018-02-20T20:25:26.969538Z,100_CREW.hdf5,IU.PMG.BH_origid=614144651
177,10279.0462,2018-02-21T11:23:43.590000Z,NaN,NaN,NaN,NaN,17422.0462,2018-02-21T11:24:55.020000Z,NaN,NaN,NaN,NaN,['BH1' 'BH2' 'BHZ'],5.122266394808035,5.963523045562318,232.935,6.612,NaN,10.516256680575832,40.0,origid=614144712,-5.4239,152.502,3.91,2018-02-21T11:22:06.820000Z,PMG,90.0,-9.4047,147.1597,IU,earthquake,2018-02-21T11:22:00.799538Z,100_CREW.hdf5,IU.PMG.BH_origid=614144712
178,NaN,NaN,NaN,NaN,10946.0462,2018-02-24T04:43:56.540000Z,NaN,NaN,NaN,NaN,14396.0462,2018-02-24T04:44:31.040000Z,['BH1' 'BH2' 'BHZ'],4.029953272063339,5.172697273527501,193.16,2.8110000000000004,NaN,12.92536894416574,51.0,origid=614145015,-6.6519,147.8073,3.88,2018-02-24T04:43:14.990000Z,PMG,90.0,-9.4047,147.1597,IU,earthquake,2018-02-24T04:42:07.079538Z,100_CREW.hdf5,IU.PMG.BH_origid=614145015
179,11553.0462,2018-02-25T10:39:01.940000Z,NaN,NaN,NaN,NaN,15983.0462,2018-02-25T10:39:46.240000Z,NaN,NaN,NaN,NaN,['BH1' 'BH2' 'BHZ'],5.156727915424566,6.598684164821265,183.898,3.963,NaN,13.482787882746006,170.0,origid=614145143,-5.4269,147.4318,3.76,2018-02-25T10:38:00.730000Z,PMG,90.0,-9.4047,147.1597,IU,earthquake,2018-02-25T10:37:06.409538Z,100_CREW.hdf5,IU.PMG.BH_origid=614145143
180,9943.0462,2018-02-25T18:55:28.400000Z,NaN,NaN,9930.046199999999,2018-02-25T18:55:28.270000Z,NaN,NaN,NaN,NaN,15227.0462,2018-02-25T18:56:21.240000Z,['BH1' 'BH2' 'BHZ'],8.658281183109548,8.549086266639343,130.09,4.775,NaN,17.260170412409522,10.0,origid=614145216,-6.3263,143.4586,4.81,2018-02-25T18:54:14.580000Z,PMG,90.0,-9.4047,147.1597,IU,earthquake,2018-02-25T18:53:48.969538Z,100_CREW.hdf5,IU.PMG.BH_origid=614145216
181,NaN,NaN,NaN,NaN,10030.046400000001,2018-02-25T19:06:13.840000Z,NaN,NaN,NaN,NaN,15780.046400000001,2018-02-25T19:07:11.340000Z,['BH1' 'BH2' 'BHZ'],13.917113640050832,13.646966070218804,126.839,5.04,NaN,14.297682545298914,35.0,origid=614145219,-6.3834,143.07299999999995,4.67,2018-02-25T19:05:00.740000Z,PMG,90.0,-9.4047,147.1597,IU,earthquake,2018-02-25T19:04:33.539536Z,100_CREW.hdf5,IU.PMG.BH_origid=614145219
182,NaN,NaN,NaN,NaN,9938.046400000001,2018-02-25T19:11:53.720000Z,NaN,NaN,NaN,NaN,15165.0464,2018-02-25T19:12:45.990000Z,['BH1' 'BH2' 'BHZ'],13.249238493905816,8.711627245751297,129.816,4.623,NaN,10.199284286111505,10.0,origid=614145221,-6.4413,143.562,4.13,2018-02-25T19:10:41.400000Z,PMG,90.0,-9.4047,147.1597,IU,earthquake,2018-02-25T19:10:14.339536Z,100_CREW.hdf5,IU.PMG.BH_origid=614145221
183,NaN,NaN,NaN,NaN,10886.0462,2018-02-25T19:28:44.420000Z,NaN,NaN,NaN,NaN,16348.046199999999,2018-02-25T19:29:39.040000Z,['BH1' 'BH2' 'BHZ'],11.68514100324033,13.388742914716179,126.421,5.037,NaN,11.877206440473847,10.0,origid=614145231,-6.4152,143.0534,4.65,2018-02-25T19:27:29.620000Z,PMG,90.0,-9.4047,147.1597,IU,earthquake,2018-02-25T19:26:55.559538Z,100_CREW.hdf5,IU.PMG.BH_origid=614145231
184,NaN,NaN,NaN,NaN,11084.0462,2018-02-25T19:38:01.340000Z,NaN,NaN,NaN,NaN,16212.0462,2018-02-25T19:38:52.620000Z,['BH1' 'BH2' 'BHZ'],8.556032767535735,9.147793268804413,124.859,4.854,NaN,9.594517669601727,10.0,origid=614145234,-6.6323,143.124,4.21,2018-02-25T19:36:46.410000Z,PMG,90.0,-9.4047,147.1597,IU,earthquake,2018-02-25T19:36:10.499538Z,100_CREW.hdf5,IU.PMG.BH_origid=614145234
185,NaN,NaN,NaN,NaN,11608.046199999999,2018-02-25T19:47:42.670000Z,NaN,NaN,NaN,NaN,16888.0462,2018-02-25T19:48:35.470000Z,['BH1' 'BH2' 'BHZ'],17.006986565415634,17.07843395337014,125.593,4.862,NaN,12.556693591478432,10.0,origid=614145237,-6.5759,143.1535,4.17,2018-02-25T19:46:28.770000Z,PMG,90.0,-9.4047,147.1597,IU,earthquake,2018-02-25T19:45:46.589538Z,100_CREW.hdf5,IU.PMG.BH_origid=614145237
186,NaN,NaN,NaN,NaN,9134.0462,2018-02-25T19:51:27.040000Z,NaN,NaN,NaN,NaN,14619.046199999999,2018-02-25T19:52:21.890000Z,['BH1' 'BH2' 'BHZ'],18.01909232179576,23.89967781562633,125.52,4.9,NaN,11.604083196977404,35.0,origid=614145238,-6.559,143.1184,3.95,2018-02-25T19:50:15.310000Z,PMG,90.0,-9.4047,147.1597,IU,earthquake,2018-02-25T19:49:55.699538Z,100_CREW.hdf5,IU.PMG.BH_origid=614145238
187,10275.0462,2018-02-25T20:18:47.290000Z,NaN,NaN,10238.046199999999,2018-02-25T20:18:46.920000Z,NaN,NaN,NaN,NaN,16405.0462,2018-02-25T20:19:48.590000Z,['BH1' 'BH2' 'BHZ'],10.163186823949095,18.1736123753233,127.187,5.391,NaN,19.124940568611173,10.0,origid=614145252,-6.1473,142.809,5.05,2018-02-25T20:17:25.030000Z,PMG,90.0,-9.4047,147.1597,IU,earthquake,2018-02-25T20:17:04.539538Z,100_CREW.hdf5,IU.PMG.BH_origid=614145252
188,NaN,NaN,NaN,NaN,9478.0462,2018-02-25T20:26:30.590000Z,NaN,NaN,NaN,NaN,14741.046199999999,2018-02-25T20:27:23.220000Z,['BH1' 'BH2' 'BHZ'],10.190576266698544,15.455312422162592,128.315,4.683,NaN,14.604708501538868,35.0,origid=614145254,-6.4995,143.4368,4.74,2018-02-25T20:25:21.680000Z,PMG,90.0,-9.4047,147.1597,IU,earthquake,2018-02-25T20:24:55.809538Z,100_CREW.hdf5,IU.PMG.BH_origid=614145254
189,NaN,NaN,NaN,NaN,10851.0462,2018-02-25T20:51:58.190000Z,NaN,NaN,NaN,NaN,16749.0462,2018-02-25T20:52:57.170000Z,['BH1' 'BH2' 'BHZ'],4.349725245127345,11.082493778865988,127.396,5.091,NaN,20.45837007536445,10.0,origid=614145264,-6.3126,143.0618,4.48,2018-02-25T20:50:42.680000Z,PMG,90.0,-9.4047,147.1597,IU,earthquake,2018-02-25T20:50:09.679538Z,100_CREW.hdf5,IU.PMG.BH_origid=614145264
190,NaN,NaN,NaN,NaN,10965.046100000001,2018-02-25T21:00:50.090000Z,NaN,NaN,NaN,NaN,16278.0461,2018-02-25T21:01:43.220000Z,['BH1' 'BH2' 'BHZ'],8.17211020060231,6.779597603955046,128.041,4.806,NaN,9.992370759476195,35.0,origid=614145268,-6.4417,143.3246,4.73,2018-02-25T20:59:40.480000Z,PMG,90.0,-9.4047,147.1597,IU,earthquake,2018-02-25T20:59:00.439539Z,100_CREW.hdf5,IU.PMG.BH_origid=614145268
