,P_arrival_sample,P_arrival_time,Pg_arrival_sample,Pg_arrival_time,Pn_arrival_sample,Pn_arrival_time,S_arrival_sample,S_arrival_time,Sg_arrival_sample,Sg_arrival_time,Sn_arrival_sample,Sn_arrival_time,channels,noise_rms,p_rms,path_azimuth_deg,path_ep_distance_deg,path_takeoff_angle_deg,s_rms,source_depth_km,source_id,source_latitude_deg,source_longitude_deg,source_magnitude,source_origin_time,station_code,station_elevation_m,station_latitude_deg,station_longitude_deg,station_network_code,trace_category,trace_start_time,filename,example_name
238,11002.046199999999,2018-03-04T21:12:37.000000Z,NaN,NaN,10884.0462,2018-03-04T21:12:35.820000Z,NaN,NaN,NaN,NaN,17271.0462,2018-03-04T21:13:39.690000Z,['BH1' 'BH2' 'BHZ'],9.600499130959564,8.839645451970865,123.637,5.6179999999999986,NaN,10.694247030657248,10.0,origid=614186184,-6.2986,142.4209,4.31,2018-03-04T21:11:12.350000Z,PMG,90.0,-9.4047,147.1597,IU,earthquake,2018-03-04T21:10:46.979538Z,100_CREW.hdf5,IU.PMG.BH_origid=614186184
239,NaN,NaN,NaN,NaN,10464.0462,2018-03-05T10:35:20.390000Z,NaN,NaN,NaN,NaN,16404.0462,2018-03-05T10:36:19.790000Z,['BH1' 'BH2' 'BHZ'],9.505876432185868,8.317226089267729,127.582,5.199,NaN,10.508675152852364,10.0,origid=614186255,-6.2337,142.9855,4.16,2018-03-05T10:34:02.030000Z,PMG,90.0,-9.4047,147.1597,IU,earthquake,2018-03-05T10:33:35.749538Z,100_CREW.hdf5,IU.PMG.BH_origid=614186255
240,11702.046199999999,2018-03-05T11:48:29.200000Z,NaN,NaN,11686.0462,2018-03-05T11:48:29.040000Z,NaN,NaN,NaN,NaN,17134.0462,2018-03-05T11:49:23.520000Z,['BH1' 'BH2' 'BHZ'],8.664110524831393,8.223250100943721,126.138,4.921,NaN,10.391801726763807,10.0,origid=614186263,-6.5037,143.1333,4.64,2018-03-05T11:47:13.410000Z,PMG,90.0,-9.4047,147.1597,IU,earthquake,2018-03-05T11:46:32.179538Z,100_CREW.hdf5,IU.PMG.BH_origid=614186263
241,NaN,NaN,NaN,NaN,10468.0462,2018-03-06T03:01:10.040000Z,NaN,NaN,NaN,NaN,13448.046199999999,2018-03-06T03:01:39.840000Z,['BH1' 'BH2' 'BHZ'],17.321937150342468,10.551736190883737,171.554,2.753,NaN,10.27783046647596,50.0,origid=614186332,-6.6657,146.7494,3.69,2018-03-06T03:00:27.150000Z,PMG,90.0,-9.4047,147.1597,IU,earthquake,2018-03-06T02:59:25.359538Z,100_CREW.hdf5,IU.PMG.BH_origid=614186332
242,10689.0462,2018-03-06T16:36:37.000000Z,NaN,NaN,10601.0462,2018-03-06T16:36:36.120000Z,NaN,NaN,NaN,NaN,16878.0462,2018-03-06T16:37:38.890000Z,['BH1' 'BH2' 'BHZ'],6.162500481038895,6.976707191508031,123.376,5.481,NaN,10.040130396273474,10.0,origid=614186415,-6.3951,142.5223,3.99,2018-03-06T16:35:13.760000Z,PMG,90.0,-9.4047,147.1597,IU,earthquake,2018-03-06T16:34:50.109538Z,100_CREW.hdf5,IU.PMG.BH_origid=614186415
243,NaN,NaN,NaN,NaN,10588.046199999999,2018-03-06T17:36:30.190000Z,NaN,NaN,NaN,NaN,16908.0462,2018-03-06T17:37:33.390000Z,['BH1' 'BH2' 'BHZ'],12.024545131688951,15.523266719517324,125.159,5.513,NaN,10.844115922836814,10.0,origid=614186426,-6.2339,142.5936,4.86,2018-03-06T17:35:08.150000Z,PMG,90.0,-9.4047,147.1597,IU,earthquake,2018-03-06T17:34:44.309538Z,100_CREW.hdf5,IU.PMG.BH_origid=614186426
244,10769.046199999999,2018-03-06T22:47:47.700000Z,NaN,NaN,10573.0462,2018-03-06T22:47:45.740000Z,NaN,NaN,NaN,NaN,16938.0462,2018-03-06T22:48:49.390000Z,['BH1' 'BH2' 'BHZ'],4.92016410742301,5.4008646246028595,125.147,5.582999999999998,NaN,10.670854821004886,10.0,origid=614186465,-6.1944,142.5344,4.33,2018-03-06T22:46:23.200000Z,PMG,90.0,-9.4047,147.1597,IU,earthquake,2018-03-06T22:46:00.009538Z,100_CREW.hdf5,IU.PMG.BH_origid=614186465
245,NaN,NaN,NaN,NaN,9089.0461,2018-03-07T02:15:28.620000Z,NaN,NaN,NaN,NaN,14111.0461,2018-03-07T02:16:18.840000Z,['BH1' 'BH2' 'BHZ'],3.281730162929376,4.498173085833664,126.532,4.424,NaN,7.291387183651884,10.0,origid=614186489,-6.7707,143.5579,4.19,2018-03-07T02:14:21.490000Z,PMG,90.0,-9.4047,147.1597,IU,earthquake,2018-03-07T02:13:57.729539Z,100_CREW.hdf5,IU.PMG.BH_origid=614186489
246,9342.0462,2018-03-07T18:12:25.900000Z,NaN,NaN,9394.046199999999,2018-03-07T18:12:26.420000Z,NaN,NaN,NaN,NaN,15321.0462,2018-03-07T18:13:25.690000Z,['BH1' 'BH2' 'BHZ'],2.4395778801689993,2.7045791199158824,123.848,5.228,NaN,4.229854488324062,10.0,origid=614186563,-6.4971,142.7606,4.91,2018-03-07T18:11:08.030000Z,PMG,90.0,-9.4047,147.1597,IU,earthquake,2018-03-07T18:10:52.479538Z,100_CREW.hdf5,IU.PMG.BH_origid=614186563
247,NaN,NaN,NaN,NaN,10484.0462,2018-03-07T20:12:32.890000Z,NaN,NaN,NaN,NaN,16274.0462,2018-03-07T20:13:30.790000Z,['BH1' 'BH2' 'BHZ'],11.701001155343873,10.07429819723789,123.988,5.172999999999999,NaN,11.61986614824032,35.0,origid=614186576,-6.5167,142.8137,3.81,2018-03-07T20:11:17.380000Z,PMG,90.0,-9.4047,147.1597,IU,earthquake,2018-03-07T20:10:48.049538Z,100_CREW.hdf5,IU.PMG.BH_origid=614186576
248,NaN,NaN,NaN,NaN,9901.0462,2018-03-09T15:11:24.020000Z,NaN,NaN,NaN,NaN,15963.046199999999,2018-03-09T15:12:24.640000Z,['BH1' 'BH2' 'BHZ'],10.159257829103815,12.283622006477199,125.307,5.4670000000000005,NaN,11.62795498180421,10.0,origid=614186791,-6.2482,142.6395,4.11,2018-03-09T15:10:01.550000Z,PMG,90.0,-9.4047,147.1597,IU,earthquake,2018-03-09T15:09:45.009538Z,100_CREW.hdf5,IU.PMG.BH_origid=614186791
249,11238.046199999999,2018-03-10T13:29:25.570000Z,NaN,NaN,11153.0462,2018-03-10T13:29:24.720000Z,20043.0462,2018-03-10T13:30:53.620000Z,NaN,NaN,NaN,NaN,['BH1' 'BH2' 'BHZ'],10.73397444937033,10.73156888600893,229.018,7.937,NaN,11.400350427556493,35.0,origid=614186895,-4.1996,153.2234,4.8,2018-03-10T13:27:30.150000Z,PMG,90.0,-9.4047,147.1597,IU,earthquake,2018-03-10T13:27:33.189538Z,100_CREW.hdf5,IU.PMG.BH_origid=614186895
250,NaN,NaN,NaN,NaN,10719.046199999999,2018-03-10T13:34:39.690000Z,NaN,NaN,NaN,NaN,16279.046199999999,2018-03-10T13:35:35.290000Z,['BH1' 'BH2' 'BHZ'],9.36213064143887,10.720654289025866,127.964,4.902,NaN,12.638325416277398,35.0,origid=614186896,-6.388,143.244,4.03,2018-03-10T13:33:28.540000Z,PMG,90.0,-9.4047,147.1597,IU,earthquake,2018-03-10T13:32:52.499538Z,100_CREW.hdf5,IU.PMG.BH_origid=614186896
251,NaN,NaN,NaN,NaN,9036.0462,2018-03-10T14:50:41.940000Z,NaN,NaN,NaN,NaN,15419.046199999999,2018-03-10T14:51:45.770000Z,['BH1' 'BH2' 'BHZ'],8.171796594545185,8.140367632536805,126.05,5.626,NaN,13.306494048752846,28.0,origid=614186902,-6.0965,142.5512,3.52,2018-03-10T14:49:19.730000Z,PMG,90.0,-9.4047,147.1597,IU,earthquake,2018-03-10T14:49:11.579538Z,100_CREW.hdf5,IU.PMG.BH_origid=614186902
252,11832.0462,2018-03-10T15:11:36.200000Z,NaN,NaN,11786.0462,2018-03-10T15:11:35.740000Z,NaN,NaN,NaN,NaN,16944.0462,2018-03-10T15:12:27.320000Z,['BH1' 'BH2' 'BHZ'],8.380798633345092,8.190029697866336,129.245,4.777,NaN,8.78608777461189,10.0,origid=614186904,-6.3801,143.4115,3.91,2018-03-10T15:10:22.460000Z,PMG,90.0,-9.4047,147.1597,IU,earthquake,2018-03-10T15:09:37.879538Z,100_CREW.hdf5,IU.PMG.BH_origid=614186904
253,NaN,NaN,NaN,NaN,11153.0462,2018-03-10T17:54:25.890000Z,NaN,NaN,NaN,NaN,15993.0462,2018-03-10T17:55:14.290000Z,['BH1' 'BH2' 'BHZ'],7.511979025938259,8.956200064444367,127.545,4.498,NaN,9.340257222427782,10.0,origid=614186912,-6.6623,143.5461,3.81,2018-03-10T17:53:17.340000Z,PMG,90.0,-9.4047,147.1597,IU,earthquake,2018-03-10T17:52:34.359538Z,100_CREW.hdf5,IU.PMG.BH_origid=614186912
254,NaN,NaN,NaN,NaN,10229.0461,2018-03-12T07:41:35.320000Z,NaN,NaN,NaN,NaN,15266.0461,2018-03-12T07:42:25.690000Z,['BH1' 'BH2' 'BHZ'],7.831605277928651,8.314891795716319,161.731,4.467,NaN,11.26879478156894,64.0,origid=614187086,-5.1385,145.7411,3.96,2018-03-12T07:40:30.650000Z,PMG,90.0,-9.4047,147.1597,IU,earthquake,2018-03-12T07:39:53.029539Z,100_CREW.hdf5,IU.PMG.BH_origid=614187086
255,5647.0462,2018-03-13T01:05:48.070000Z,NaN,NaN,NaN,NaN,8904.0462,2018-03-13T01:06:20.640000Z,NaN,NaN,NaN,NaN,['BH1' 'BH2' 'BHZ'],0.7093076137998671,2.606272577358593,184.078,2.753,NaN,7.3185400129324325,63.0,origid=614187157,-6.6428,147.3573,4.65,2018-03-13T01:05:04.330000Z,PMG,90.0,-9.4047,147.1597,IU,earthquake,2018-03-13T01:04:51.599538Z,100_CREW.hdf5,IU.PMG.BH_origid=614187157
256,10003.0462,2018-03-13T06:08:26.440000Z,NaN,NaN,9916.046199999999,2018-03-13T06:08:25.570000Z,16113.046199999999,2018-03-13T06:09:27.540000Z,NaN,NaN,16141.046199999999,2018-03-13T06:09:27.820000Z,['BH1' 'BH2' 'BHZ'],6.971630996899722,7.779457722499295,222.945,5.681,NaN,12.301240652553684,150.0,origid=614187181,-5.2361,151.0778,4.01,2018-03-13T06:07:02.990000Z,PMG,90.0,-9.4047,147.1597,IU,earthquake,2018-03-13T06:06:46.409538Z,100_CREW.hdf5,IU.PMG.BH_origid=614187181
257,12006.0462,2018-03-13T13:04:16.900000Z,NaN,NaN,11970.0462,2018-03-13T13:04:16.540000Z,NaN,NaN,NaN,NaN,17548.046199999997,2018-03-13T13:05:12.320000Z,['BH1' 'BH2' 'BHZ'],10.548554576692538,9.171204272207943,126.138,4.974,NaN,10.213977875473699,10.0,origid=614187211,-6.4725,143.0898,4.56,2018-03-13T13:03:01.610000Z,PMG,90.0,-9.4047,147.1597,IU,earthquake,2018-03-13T13:02:16.839538Z,100_CREW.hdf5,IU.PMG.BH_origid=614187211
258,NaN,NaN,NaN,NaN,9984.0462,2018-03-13T20:44:52.000000Z,NaN,NaN,NaN,NaN,16401.0462,2018-03-13T20:45:56.170000Z,['BH1' 'BH2' 'BHZ'],12.04900640301697,10.985258680812516,125.583,5.574,NaN,10.986214855768774,28.0,origid=614187242,-6.1648,142.5674,3.89,2018-03-13T20:43:31.170000Z,PMG,90.0,-9.4047,147.1597,IU,earthquake,2018-03-13T20:43:12.159538Z,100_CREW.hdf5,IU.PMG.BH_origid=614187242
259,11553.0462,2018-03-13T21:25:21.140000Z,NaN,NaN,11525.0462,2018-03-13T21:25:20.860000Z,18021.0462,2018-03-13T21:26:25.820000Z,NaN,NaN,NaN,NaN,['BH1' 'BH2' 'BHZ'],8.452867999549888,9.468829523966743,146.261,5.702000000000001,NaN,8.305095344089247,110.0,origid=614187246,-4.6432,143.9532,4.42,2018-03-13T21:23:59.430000Z,PMG,90.0,-9.4047,147.1597,IU,earthquake,2018-03-13T21:23:25.609538Z,100_CREW.hdf5,IU.PMG.BH_origid=614187246
260,11817.0462,2018-03-14T06:57:54.310000Z,NaN,NaN,11803.0462,2018-03-14T06:57:54.170000Z,NaN,NaN,NaN,NaN,17483.0462,2018-03-14T06:58:50.970000Z,['BH1' 'BH2' 'BHZ'],6.018401922513565,6.517801892544489,126.085,5.131,NaN,11.902381877551287,10.0,origid=614187273,-6.3841,142.9587,4.95,2018-03-14T06:56:37.610000Z,PMG,90.0,-9.4047,147.1597,IU,earthquake,2018-03-14T06:55:56.139538Z,100_CREW.hdf5,IU.PMG.BH_origid=614187273
261,NaN,NaN,NaN,NaN,11766.046199999999,2018-03-15T11:12:39.240000Z,NaN,NaN,NaN,NaN,18504.0462,2018-03-15T11:13:46.620000Z,['BH1' 'BH2' 'BHZ'],12.14805599585959,12.928592691408037,229.816,6.138,NaN,11.367542349236592,45.0,origid=614187415,-5.4426,151.9079,3.82,2018-03-15T11:11:10.150000Z,PMG,90.0,-9.4047,147.1597,IU,earthquake,2018-03-15T11:10:41.579538Z,100_CREW.hdf5,IU.PMG.BH_origid=614187415
262,NaN,NaN,NaN,NaN,9655.046199999999,2018-03-15T13:20:27.320000Z,NaN,NaN,NaN,NaN,16075.0462,2018-03-15T13:21:31.520000Z,['BH1' 'BH2' 'BHZ'],11.23030024010893,14.06399108695832,124.965,5.433,NaN,14.748120153710067,35.0,origid=614187428,-6.2946,142.6486,4.04,2018-03-15T13:19:10.070000Z,PMG,90.0,-9.4047,147.1597,IU,earthquake,2018-03-15T13:18:50.769538Z,100_CREW.hdf5,IU.PMG.BH_origid=614187428
263,NaN,NaN,NaN,NaN,11074.046199999999,2018-03-15T13:45:30.790000Z,NaN,NaN,NaN,NaN,16467.046199999997,2018-03-15T13:46:24.720000Z,['BH1' 'BH2' 'BHZ'],10.293751680733452,10.879101369018244,127.672,4.569,NaN,12.121317322874331,35.0,origid=614187430,-6.6110000000000015,143.4952,4.26,2018-03-15T13:44:22.210000Z,PMG,90.0,-9.4047,147.1597,IU,earthquake,2018-03-15T13:43:40.049538Z,100_CREW.hdf5,IU.PMG.BH_origid=614187430
264,9915.0462,2018-03-15T18:59:55.110000Z,NaN,NaN,9903.0462,2018-03-15T18:59:54.990000Z,NaN,NaN,NaN,NaN,16463.0462,2018-03-15T19:01:00.590000Z,['BH1' 'BH2' 'BHZ'],2.3798045385513733,2.721265521736325,124.107,5.818,NaN,3.6361213158539316,28.0,origid=614187458,-6.1482,142.2793,4.97,2018-03-15T18:58:30.580000Z,PMG,90.0,-9.4047,147.1597,IU,earthquake,2018-03-15T18:58:15.959538Z,100_CREW.hdf5,IU.PMG.BH_origid=614187458
265,NaN,NaN,NaN,NaN,10360.0461,2018-03-17T14:22:47.170000Z,NaN,NaN,NaN,NaN,16820.0461,2018-03-17T14:23:51.770000Z,['BH1' 'BH2' 'BHZ'],6.9750712785087865,10.433281873253582,125.833,5.544,NaN,12.13813596601599,10.0,origid=614187617,-6.1623,142.6065,4.24,2018-03-17T14:21:22.510000Z,PMG,90.0,-9.4047,147.1597,IU,earthquake,2018-03-17T14:21:03.569539Z,100_CREW.hdf5,IU.PMG.BH_origid=614187617
266,NaN,NaN,NaN,NaN,10489.0462,2018-03-17T16:11:04.270000Z,NaN,NaN,NaN,NaN,16576.0462,2018-03-17T16:12:05.140000Z,['BH1' 'BH2' 'BHZ'],10.185467984252657,13.043745698404155,124.911,5.343,NaN,10.20138751560102,35.0,origid=614187631,-6.3502,142.7204,3.87,2018-03-17T16:09:47.110000Z,PMG,90.0,-9.4047,147.1597,IU,earthquake,2018-03-17T16:09:19.379538Z,100_CREW.hdf5,IU.PMG.BH_origid=614187631
267,3720.0463999999997,2018-03-17T21:47:06.620000Z,NaN,NaN,NaN,NaN,8157.0464,2018-03-17T21:47:50.990000Z,NaN,NaN,NaN,NaN,['BH1' 'BH2' 'BHZ'],2.1607199269271145,6.101100094624818,177.637,3.874,NaN,11.581715729466143,195.0,origid=614187671,-5.5104,146.9973,4.42,2018-03-17T21:46:07.450000Z,PMG,90.0,-9.4047,147.1597,IU,earthquake,2018-03-17T21:46:29.419536Z,100_CREW.hdf5,IU.PMG.BH_origid=614187671
268,10375.0462,2018-03-17T22:34:48.800000Z,NaN,NaN,10359.0462,2018-03-17T22:34:48.640000Z,NaN,NaN,NaN,NaN,16642.046199999997,2018-03-17T22:35:51.470000Z,['BH1' 'BH2' 'BHZ'],9.012163446435158,8.19260955744504,125.07,5.5120000000000005,NaN,11.254408880578385,28.0,origid=614187676,-6.2412,142.589,4.44,2018-03-17T22:33:27.820000Z,PMG,90.0,-9.4047,147.1597,IU,earthquake,2018-03-17T22:33:05.049538Z,100_CREW.hdf5,IU.PMG.BH_origid=614187676
269,11547.0462,2018-03-18T14:09:03.100000Z,NaN,NaN,11552.046199999999,2018-03-18T14:09:03.150000Z,NaN,NaN,NaN,NaN,17134.0462,2018-03-18T14:09:58.970000Z,['BH1' 'BH2' 'BHZ'],14.502496408434135,12.580385965701195,125.167,4.958,NaN,12.032782879728076,35.0,origid=614187742,-6.551,143.053,3.62,2018-03-18T14:07:50.810000Z,PMG,90.0,-9.4047,147.1597,IU,earthquake,2018-03-18T14:07:07.629538Z,100_CREW.hdf5,IU.PMG.BH_origid=614187742
270,NaN,NaN,NaN,NaN,10459.0462,2018-03-18T19:51:57.920000Z,NaN,NaN,NaN,NaN,16624.0462,2018-03-18T19:52:59.570000Z,['BH1' 'BH2' 'BHZ'],8.287357624420713,8.675860672403472,126.435,5.459,NaN,11.330402405928368,35.0,origid=614187768,-6.1645,142.7102,3.87,2018-03-18T19:50:38.030000Z,PMG,90.0,-9.4047,147.1597,IU,earthquake,2018-03-18T19:50:13.329538Z,100_CREW.hdf5,IU.PMG.BH_origid=614187768
271,NaN,NaN,NaN,NaN,10144.046199999999,2018-03-20T18:07:01.420000Z,NaN,NaN,NaN,NaN,15499.0462,2018-03-20T18:07:54.970000Z,['BH1' 'BH2' 'BHZ'],13.731704154075446,10.442985627328383,124.768,4.481,NaN,8.290300486340788,10.0,origid=614187954,-6.8505,143.4298,3.66,2018-03-20T18:05:54.000000Z,PMG,90.0,-9.4047,147.1597,IU,earthquake,2018-03-20T18:05:19.979538Z,100_CREW.hdf5,IU.PMG.BH_origid=614187954
272,NaN,NaN,NaN,NaN,9738.046199999999,2018-03-21T08:01:46.920000Z,NaN,NaN,NaN,NaN,16148.046199999999,2018-03-21T08:02:51.020000Z,['BH1' 'BH2' 'BHZ'],1.4336639123117034,5.971501650468064,125.514,5.558,NaN,8.555822923720413,28.0,origid=614188012,-6.1794,142.5764,4.83,2018-03-21T08:00:26.250000Z,PMG,90.0,-9.4047,147.1597,IU,earthquake,2018-03-21T08:00:09.539538Z,100_CREW.hdf5,IU.PMG.BH_origid=614188012
273,NaN,NaN,NaN,NaN,10738.046199999999,2018-03-21T13:11:44.340000Z,NaN,NaN,NaN,NaN,16638.0462,2018-03-21T13:12:43.340000Z,['BH1' 'BH2' 'BHZ'],17.251155351746743,17.398375145735734,127.053,5.218,NaN,9.487953286259906,35.0,origid=614188039,-6.2613,142.9408,3.99,2018-03-21T13:10:28.670000Z,PMG,90.0,-9.4047,147.1597,IU,earthquake,2018-03-21T13:09:56.959538Z,100_CREW.hdf5,IU.PMG.BH_origid=614188039
274,NaN,NaN,NaN,NaN,10723.046100000001,2018-03-22T23:24:41.340000Z,NaN,NaN,NaN,NaN,16493.0461,2018-03-22T23:25:39.040000Z,['BH1' 'BH2' 'BHZ'],1.762390151388201,3.295834038180124,126.659,5.2189999999999985,NaN,9.48896850335051,10.0,origid=614188187,-6.2895,142.9176,4.95,2018-03-22T23:23:22.840000Z,PMG,90.0,-9.4047,147.1597,IU,earthquake,2018-03-22T23:22:54.109539Z,100_CREW.hdf5,IU.PMG.BH_origid=614188187
275,NaN,NaN,NaN,NaN,9854.0461,2018-03-23T00:05:19.270000Z,NaN,NaN,NaN,NaN,16259.0461,2018-03-23T00:06:23.320000Z,['BH1' 'BH2' 'BHZ'],9.806677359655703,9.043702631002379,124.3,5.632999999999999,NaN,14.82579551764382,28.0,origid=614188192,-6.2356,142.4455,4.33,2018-03-23T00:03:57.590000Z,PMG,90.0,-9.4047,147.1597,IU,earthquake,2018-03-23T00:03:40.729539Z,100_CREW.hdf5,IU.PMG.BH_origid=614188192
276,NaN,NaN,NaN,NaN,10893.0462,2018-03-23T11:53:53.720000Z,NaN,NaN,NaN,NaN,16610.0462,2018-03-23T11:54:50.890000Z,['BH1' 'BH2' 'BHZ'],1.494538263215982,2.277783118637069,127.314,5.103,NaN,8.284631830940087,35.0,origid=614188243,-6.3111,143.0475,5.25,2018-03-23T11:52:39.810000Z,PMG,90.0,-9.4047,147.1597,IU,earthquake,2018-03-23T11:52:04.789538Z,100_CREW.hdf5,IU.PMG.BH_origid=614188243
277,10594.046199999999,2018-03-24T14:16:42.370000Z,NaN,NaN,10578.0462,2018-03-24T14:16:42.210000Z,17039.0462,2018-03-24T14:17:46.820000Z,NaN,NaN,NaN,NaN,['BH1' 'BH2' 'BHZ'],10.527726858649846,11.439495867243531,228.617,5.815,NaN,16.394834356531053,57.0,origid=614188348,-5.5571,151.5774,4.02,2018-03-24T14:15:17.520000Z,PMG,90.0,-9.4047,147.1597,IU,earthquake,2018-03-24T14:14:56.429538Z,100_CREW.hdf5,IU.PMG.BH_origid=614188348
278,9086.0462,2018-03-24T16:53:18.520000Z,NaN,NaN,NaN,NaN,15356.0462,2018-03-24T16:54:21.220000Z,NaN,NaN,NaN,NaN,['BH1' 'BH2' 'BHZ'],12.290710781308197,12.59160318681646,227.11,5.74,NaN,11.217578168446112,57.0,origid=614188359,-5.4925,151.418,3.73,2018-03-24T16:51:54.760000Z,PMG,90.0,-9.4047,147.1597,IU,earthquake,2018-03-24T16:51:47.659538Z,100_CREW.hdf5,IU.PMG.BH_origid=614188359
279,NaN,NaN,NaN,NaN,10388.046199999999,2018-03-24T18:47:16.190000Z,NaN,NaN,NaN,NaN,16431.0462,2018-03-24T18:48:16.620000Z,['BH1' 'BH2' 'BHZ'],11.310766508674364,9.898088398501951,125.94,5.488,NaN,10.381524328772258,35.0,origid=614188374,-6.186,142.6579,4.04,2018-03-24T18:45:56.550000Z,PMG,90.0,-9.4047,147.1597,IU,earthquake,2018-03-24T18:45:32.309538Z,100_CREW.hdf5,IU.PMG.BH_origid=614188374
280,NaN,NaN,NaN,NaN,10773.0464,2018-03-25T06:39:23.290000Z,NaN,NaN,NaN,NaN,16498.046400000003,2018-03-25T06:40:20.540000Z,['BH1' 'BH2' 'BHZ'],11.497673100899952,11.289961847824669,125.181,5.181,NaN,10.271006402596054,10.0,origid=614188434,-6.4224,142.8696,4.4,2018-03-25T06:38:07.510000Z,PMG,90.0,-9.4047,147.1597,IU,earthquake,2018-03-25T06:37:35.559536Z,100_CREW.hdf5,IU.PMG.BH_origid=614188434
281,11283.046199999999,2018-03-25T08:27:15.920000Z,NaN,NaN,10941.046199999999,2018-03-25T08:27:12.500000Z,19708.0462,2018-03-25T08:28:40.170000Z,NaN,NaN,NaN,NaN,['BH1' 'BH2' 'BHZ'],7.563144586654254,7.689935662622305,230.196,7.979,NaN,13.922047066893551,35.0,origid=614188446,-4.2997,153.3633,4.18,2018-03-25T08:25:18.690000Z,PMG,90.0,-9.4047,147.1597,IU,earthquake,2018-03-25T08:25:23.089538Z,100_CREW.hdf5,IU.PMG.BH_origid=614188446
282,11058.046199999999,2018-03-26T03:22:23.690000Z,NaN,NaN,NaN,NaN,14678.0462,2018-03-26T03:22:59.890000Z,NaN,NaN,NaN,NaN,['BH1' 'BH2' 'BHZ'],7.969756942819895,10.211073174533936,198.593,3.237,NaN,8.406171902668737,50.0,origid=614188521,-6.3193,148.2046,3.76,2018-03-26T03:21:33.960000Z,PMG,90.0,-9.4047,147.1597,IU,earthquake,2018-03-26T03:20:33.109538Z,100_CREW.hdf5,IU.PMG.BH_origid=614188521
283,NaN,NaN,NaN,NaN,9167.0462,2018-03-26T07:49:11.170000Z,NaN,NaN,NaN,NaN,14787.0462,2018-03-26T07:50:07.370000Z,['BH1' 'BH2' 'BHZ'],7.6198253213421046,9.12482616234681,124.363,5.015,NaN,9.655488295263297,35.0,origid=614188533,-6.5769,142.965,3.93,2018-03-26T07:47:58.610000Z,PMG,90.0,-9.4047,147.1597,IU,earthquake,2018-03-26T07:47:39.499538Z,100_CREW.hdf5,IU.PMG.BH_origid=614188533
284,NaN,NaN,NaN,NaN,11203.0462,2018-03-26T08:19:47.690000Z,NaN,NaN,NaN,NaN,17891.0462,2018-03-26T08:20:54.570000Z,['BH1' 'BH2' 'BHZ'],16.2061276683532,16.913555729776434,127.03,6.058,NaN,7.634561113460041,35.0,origid=614188535,-5.7592,142.2607,4.25,2018-03-26T08:18:21.060000Z,PMG,90.0,-9.4047,147.1597,IU,earthquake,2018-03-26T08:17:55.659538Z,100_CREW.hdf5,IU.PMG.BH_origid=614188535
