,P_arrival_sample,P_arrival_time,Pg_arrival_sample,Pg_arrival_time,Pn_arrival_sample,Pn_arrival_time,S_arrival_sample,S_arrival_time,Sg_arrival_sample,Sg_arrival_time,Sn_arrival_sample,Sn_arrival_time,channels,noise_rms,p_rms,path_azimuth_deg,path_ep_distance_deg,path_takeoff_angle_deg,s_rms,source_depth_km,source_id,source_latitude_deg,source_longitude_deg,source_magnitude,source_origin_time,station_code,station_elevation_m,station_latitude_deg,station_longitude_deg,station_network_code,trace_category,trace_start_time,filename,example_name
191,10756.0462,2018-02-25T21:13:08.400000Z,NaN,NaN,10763.046199999999,2018-02-25T21:13:08.470000Z,NaN,NaN,NaN,NaN,17370.046199999997,2018-02-25T21:14:14.540000Z,['BH1' 'BH2' 'BHZ'],13.511726543712554,14.058945044027997,128.504,5.961,NaN,14.108847818348307,10.0,origid=614145272,-5.6939,142.4342,4.99,2018-02-25T21:11:39.560000Z,PMG,90.0,-9.4047,147.1597,IU,earthquake,2018-02-25T21:11:20.839538Z,100_CREW.hdf5,IU.PMG.BH_origid=614145272
192,10243.0462,2018-02-25T21:49:08.800000Z,NaN,NaN,10220.0462,2018-02-25T21:49:08.570000Z,NaN,NaN,NaN,NaN,16505.0462,2018-02-25T21:50:11.420000Z,['BH1' 'BH2' 'BHZ'],1.8350686802161413,2.1230156300718344,127.407,5.568,NaN,6.843639471334257,28.0,origid=614145283,-6.0233,142.6793,5.06,2018-02-25T21:47:46.590000Z,PMG,90.0,-9.4047,147.1597,IU,earthquake,2018-02-25T21:47:26.369538Z,100_CREW.hdf5,IU.PMG.BH_origid=614145283
193,NaN,NaN,NaN,NaN,10643.0462,2018-02-25T22:19:15.990000Z,NaN,NaN,NaN,NaN,15968.0462,2018-02-25T22:20:09.240000Z,['BH1' 'BH2' 'BHZ'],3.6521402071682245,4.687257177272954,130.22299999999998,4.604,NaN,10.123857816911924,35.0,origid=614145288,-6.4277,143.5977,4.32,2018-02-25T22:18:09.690000Z,PMG,90.0,-9.4047,147.1597,IU,earthquake,2018-02-25T22:17:29.559538Z,100_CREW.hdf5,IU.PMG.BH_origid=614145288
194,11768.0462,2018-02-25T22:29:28.360000Z,NaN,NaN,11781.0462,2018-02-25T22:29:28.490000Z,NaN,NaN,NaN,NaN,18074.0462,2018-02-25T22:30:31.420000Z,['BH1' 'BH2' 'BHZ'],2.7632595076927147,4.34726778135138,126.102,5.466,NaN,8.836431516682541,10.0,origid=614145292,-6.1866,142.6859,5.16,2018-02-25T22:28:08.510000Z,PMG,90.0,-9.4047,147.1597,IU,earthquake,2018-02-25T22:27:30.679538Z,100_CREW.hdf5,IU.PMG.BH_origid=614145292
195,NaN,NaN,NaN,NaN,10302.046199999999,2018-02-25T23:08:43.990000Z,NaN,NaN,NaN,NaN,16007.046199999999,2018-02-25T23:09:41.040000Z,['BH1' 'BH2' 'BHZ'],14.83210023833425,11.219449138799995,128.995,5.1370000000000005,NaN,7.663762726047423,10.0,origid=614145300,-6.1705,143.1149,4.82,2018-02-25T23:07:24.890000Z,PMG,90.0,-9.4047,147.1597,IU,earthquake,2018-02-25T23:07:00.969538Z,100_CREW.hdf5,IU.PMG.BH_origid=614145300
196,10135.0461,2018-02-26T02:26:47.300000Z,NaN,NaN,10142.0461,2018-02-26T02:26:47.370000Z,NaN,NaN,NaN,NaN,15679.0461,2018-02-26T02:27:42.740000Z,['BH1' 'BH2' 'BHZ'],2.0615011738963456,2.9141099845535443,126.476,5.11,NaN,4.922999898027317,10.0,origid=614145326,-6.3681,142.9969,5.02,2018-02-26T02:25:30.790000Z,PMG,90.0,-9.4047,147.1597,IU,earthquake,2018-02-26T02:25:05.949539Z,100_CREW.hdf5,IU.PMG.BH_origid=614145326
197,9235.046199999999,2018-02-26T05:29:19.500000Z,NaN,NaN,9174.046199999999,2018-02-26T05:29:18.890000Z,NaN,NaN,NaN,NaN,15212.0462,2018-02-26T05:30:19.270000Z,['BH1' 'BH2' 'BHZ'],2.308102528896613,2.408402449135789,127.032,5.2360000000000015,NaN,8.089499335801385,10.0,origid=614145361,-6.2517,142.9247,4.99,2018-02-26T05:28:01.290000Z,PMG,90.0,-9.4047,147.1597,IU,earthquake,2018-02-26T05:27:47.149538Z,100_CREW.hdf5,IU.PMG.BH_origid=614145361
198,NaN,NaN,NaN,NaN,10039.0461,2018-02-26T05:49:06.090000Z,NaN,NaN,NaN,NaN,15284.0461,2018-02-26T05:49:58.540000Z,['BH1' 'BH2' 'BHZ'],11.112349758245633,10.47434479441457,128.05200000000002,4.721,NaN,11.946421686444502,10.0,origid=614145363,-6.4934,143.3931,4.05,2018-02-26T05:47:55.320000Z,PMG,90.0,-9.4047,147.1597,IU,earthquake,2018-02-26T05:47:25.699539Z,100_CREW.hdf5,IU.PMG.BH_origid=614145363
199,NaN,NaN,NaN,NaN,9282.0462,2018-02-26T09:42:52.540000Z,NaN,NaN,NaN,NaN,14575.0462,2018-02-26T09:43:45.470000Z,['BH1' 'BH2' 'BHZ'],8.938357084478136,9.65767632637589,126.288,4.8039999999999985,NaN,7.9606212336059015,35.0,origid=614145405,-6.5621,143.2365,4.08,2018-02-26T09:41:42.240000Z,PMG,90.0,-9.4047,147.1597,IU,earthquake,2018-02-26T09:41:19.719538Z,100_CREW.hdf5,IU.PMG.BH_origid=614145405
200,9957.0462,2018-02-26T10:29:10.500000Z,NaN,NaN,9909.0462,2018-02-26T10:29:10.020000Z,NaN,NaN,NaN,NaN,15131.0462,2018-02-26T10:30:02.240000Z,['BH1' 'BH2' 'BHZ'],12.16629219243138,12.549051024519061,129.465,4.7860000000000005,NaN,8.246222827974874,35.0,origid=614145411,-6.36,143.4162,4.36,2018-02-26T10:27:59.330000Z,PMG,90.0,-9.4047,147.1597,IU,earthquake,2018-02-26T10:27:30.929538Z,100_CREW.hdf5,IU.PMG.BH_origid=614145411
201,10971.0462,2018-02-26T12:30:41.100000Z,NaN,NaN,10998.0462,2018-02-26T12:30:41.370000Z,NaN,NaN,NaN,NaN,16273.046199999999,2018-02-26T12:31:34.120000Z,['BH1' 'BH2' 'BHZ'],9.643077644867581,8.543829798501868,128.974,4.908,NaN,10.328445442302009,35.0,origid=614145432,-6.3156,143.2938,4.86,2018-02-26T12:29:30.030000Z,PMG,90.0,-9.4047,147.1597,IU,earthquake,2018-02-26T12:28:51.389538Z,100_CREW.hdf5,IU.PMG.BH_origid=614145432
202,NaN,NaN,NaN,NaN,10571.0462,2018-02-26T13:19:57.390000Z,NaN,NaN,NaN,NaN,16024.0462,2018-02-26T13:20:51.920000Z,['BH1' 'BH2' 'BHZ'],12.02942701392062,11.761683900858252,126.739,4.839,NaN,11.445454624485622,35.0,origid=614145438,-6.5101,143.2304,4.32,2018-02-26T13:18:47.540000Z,PMG,90.0,-9.4047,147.1597,IU,earthquake,2018-02-26T13:18:11.679538Z,100_CREW.hdf5,IU.PMG.BH_origid=614145438
203,10976.0462,2018-02-26T16:17:46.800000Z,NaN,NaN,10963.046199999999,2018-02-26T16:17:46.670000Z,NaN,NaN,NaN,NaN,16783.0462,2018-02-26T16:18:44.870000Z,['BH1' 'BH2' 'BHZ'],9.724037470335105,13.613521099691765,124.424,5.309,NaN,14.788264460871401,35.0,origid=614145469,-6.4076,142.7232,4.62,2018-02-26T16:16:28.840000Z,PMG,90.0,-9.4047,147.1597,IU,earthquake,2018-02-26T16:15:57.039538Z,100_CREW.hdf5,IU.PMG.BH_origid=614145469
204,NaN,NaN,NaN,NaN,9313.046199999999,2018-02-26T17:26:52.320000Z,NaN,NaN,NaN,NaN,13315.0462,2018-02-26T17:27:32.340000Z,['BH1' 'BH2' 'BHZ'],5.3601293193464965,6.206993036259546,227.237,3.786,NaN,10.647222152629366,10.0,origid=614145476,-6.8281,149.9751,3.63,2018-02-26T17:25:51.550000Z,PMG,90.0,-9.4047,147.1597,IU,earthquake,2018-02-26T17:25:19.189538Z,100_CREW.hdf5,IU.PMG.BH_origid=614145476
205,NaN,NaN,NaN,NaN,11587.0462,2018-02-26T17:59:29.490000Z,NaN,NaN,NaN,NaN,18020.046199999997,2018-02-26T18:00:33.820000Z,['BH1' 'BH2' 'BHZ'],10.442661260349576,10.537856346534726,125.862,5.735,NaN,13.333801575942442,28.0,origid=614145481,-6.0486,142.4514,4.35,2018-02-26T17:58:06.120000Z,PMG,90.0,-9.4047,147.1597,IU,earthquake,2018-02-26T17:57:33.619538Z,100_CREW.hdf5,IU.PMG.BH_origid=614145481
206,NaN,NaN,NaN,NaN,11185.046199999999,2018-02-26T19:07:35.190000Z,NaN,NaN,NaN,NaN,17170.046199999997,2018-02-26T19:08:35.040000Z,['BH1' 'BH2' 'BHZ'],16.741739092423614,13.906842420264597,127.072,5.263,NaN,11.289387841866825,35.0,origid=614145493,-6.2326,142.9051,3.8,2018-02-26T19:06:19.460000Z,PMG,90.0,-9.4047,147.1597,IU,earthquake,2018-02-26T19:05:43.339538Z,100_CREW.hdf5,IU.PMG.BH_origid=614145493
207,9193.0462,2018-02-26T21:53:54.900000Z,NaN,NaN,9187.0462,2018-02-26T21:53:54.840000Z,NaN,NaN,NaN,NaN,14992.046199999999,2018-02-26T21:54:52.890000Z,['BH1' 'BH2' 'BHZ'],2.4897609750921594,3.161493672845309,126.296,5.181,NaN,6.554511624125778,10.0,origid=614145512,-6.339,142.929,4.92,2018-02-26T21:52:36.590000Z,PMG,90.0,-9.4047,147.1597,IU,earthquake,2018-02-26T21:52:22.969538Z,100_CREW.hdf5,IU.PMG.BH_origid=614145512
208,NaN,NaN,NaN,NaN,9114.0464,2018-02-27T09:56:07.670000Z,NaN,NaN,NaN,NaN,14373.046400000001,2018-02-27T09:57:00.260000Z,['BH1' 'BH2' 'BHZ'],5.659957823969087,8.968547649078289,130.053,4.65,NaN,10.817431552240661,35.0,origid=614145592,-6.4092,143.5537,4.06,2018-02-27T09:54:59.710000Z,PMG,90.0,-9.4047,147.1597,IU,earthquake,2018-02-27T09:54:36.529536Z,100_CREW.hdf5,IU.PMG.BH_origid=614145592
209,3801.0461999999998,2018-02-27T10:21:26.220000Z,NaN,NaN,3793.0461999999998,2018-02-27T10:21:26.140000Z,7113.0462,2018-02-27T10:21:59.340000Z,NaN,NaN,7074.0462,2018-02-27T10:21:58.950000Z,['BH1' 'BH2' 'BHZ'],1.376911819822777,7.235271009011784,162.612,2.8280000000000003,NaN,12.63660640589429,110.0,origid=614145594,-6.691,146.3029,4.59,2018-02-27T10:20:42.120000Z,PMG,90.0,-9.4047,147.1597,IU,earthquake,2018-02-27T10:20:48.209538Z,100_CREW.hdf5,IU.PMG.BH_origid=614145594
210,11068.0462,2018-02-27T10:51:06.800000Z,NaN,NaN,11000.0462,2018-02-27T10:51:06.120000Z,NaN,NaN,NaN,NaN,16235.046199999999,2018-02-27T10:51:58.470000Z,['BH1' 'BH2' 'BHZ'],2.656839167441486,4.321200426195562,130.113,4.723,NaN,7.496051027689074,19.3918,origid=614145596,-6.3581,143.5,4.85,2018-02-27T10:49:55.720000Z,PMG,90.0,-9.4047,147.1597,IU,earthquake,2018-02-27T10:49:16.119538Z,100_CREW.hdf5,IU.PMG.BH_origid=614145596
211,9574.046199999999,2018-02-27T20:12:23.500000Z,NaN,NaN,9661.0462,2018-02-27T20:12:24.370000Z,NaN,NaN,NaN,NaN,15596.0462,2018-02-27T20:13:23.720000Z,['BH1' 'BH2' 'BHZ'],2.35011463950576,3.518398770489648,126.242,5.29,NaN,5.872991176241143,13.431899999999999,origid=614145655,-6.2792,142.8374,5.15,2018-02-27T20:11:05.260000Z,PMG,90.0,-9.4047,147.1597,IU,earthquake,2018-02-27T20:10:47.759538Z,100_CREW.hdf5,IU.PMG.BH_origid=614145655
212,11558.046199999999,2018-02-28T02:47:06.530000Z,NaN,NaN,11579.0462,2018-02-28T02:47:06.740000Z,NaN,NaN,NaN,NaN,18142.046199999997,2018-02-28T02:48:12.370000Z,['BH1' 'BH2' 'BHZ'],0.07142730854585802,0.590097117761119,124.929,5.605,NaN,3.2899308252344217,16.4129,origid=614145694,-6.1994,142.5038,6.19,2018-02-28T02:45:45.350000Z,PMG,90.0,-9.4047,147.1597,IU,earthquake,2018-02-28T02:45:10.949538Z,100_CREW.hdf5,IU.PMG.BH_origid=614145694
213,NaN,NaN,NaN,NaN,11362.0462,2018-02-28T12:30:14.340000Z,NaN,NaN,NaN,NaN,17705.0462,2018-02-28T12:31:17.770000Z,['BH1' 'BH2' 'BHZ'],6.966171377887922,10.996444809447606,125.344,5.641,NaN,8.286016733239721,28.0,origid=614145752,-6.1452,142.498,4.25,2018-02-28T12:28:52.530000Z,PMG,90.0,-9.4047,147.1597,IU,earthquake,2018-02-28T12:28:20.719538Z,100_CREW.hdf5,IU.PMG.BH_origid=614145752
214,NaN,NaN,NaN,NaN,9520.0462,2018-02-28T12:36:27.270000Z,NaN,NaN,NaN,NaN,15940.0462,2018-02-28T12:37:31.470000Z,['BH1' 'BH2' 'BHZ'],9.655845388632253,13.249507966624455,124.636,5.658,NaN,12.99851846577441,10.0,origid=614145754,-6.1938,142.4435,4.21,2018-02-28T12:35:02.480000Z,PMG,90.0,-9.4047,147.1597,IU,earthquake,2018-02-28T12:34:52.069538Z,100_CREW.hdf5,IU.PMG.BH_origid=614145754
215,NaN,NaN,NaN,NaN,10907.0462,2018-02-28T12:54:02.920000Z,NaN,NaN,NaN,NaN,17199.0462,2018-02-28T12:55:05.840000Z,['BH1' 'BH2' 'BHZ'],6.540693613099732,6.572227780181313,123.562,5.497000000000001,NaN,7.56323685683613,10.0,origid=614145759,-6.3716,142.5192,4.27,2018-02-28T12:52:39.180000Z,PMG,90.0,-9.4047,147.1597,IU,earthquake,2018-02-28T12:52:13.849538Z,100_CREW.hdf5,IU.PMG.BH_origid=614145759
216,9607.0462,2018-02-28T14:02:20.800000Z,NaN,NaN,9566.046199999999,2018-02-28T14:02:20.390000Z,NaN,NaN,NaN,NaN,15894.046199999999,2018-02-28T14:03:23.670000Z,['BH1' 'BH2' 'BHZ'],8.48646133329259,9.382502429110806,124.942,5.672999999999999,NaN,7.697384798004401,28.0,origid=614145764,-6.16,142.4485,4.88,2018-02-28T14:00:58.270000Z,PMG,90.0,-9.4047,147.1597,IU,earthquake,2018-02-28T14:00:44.729538Z,100_CREW.hdf5,IU.PMG.BH_origid=614145764
217,10692.0462,2018-02-28T14:46:42.800000Z,NaN,NaN,10511.0462,2018-02-28T14:46:40.990000Z,NaN,NaN,NaN,NaN,16654.0462,2018-02-28T14:47:42.420000Z,['BH1' 'BH2' 'BHZ'],5.301084188332268,5.333657960666298,127.545,5.43,NaN,6.772902181696517,10.0,origid=614145771,-6.096,142.7979,4.79,2018-02-28T14:45:20.630000Z,PMG,90.0,-9.4047,147.1597,IU,earthquake,2018-02-28T14:44:55.879538Z,100_CREW.hdf5,IU.PMG.BH_origid=614145771
218,10192.0462,2018-02-28T18:05:01.720000Z,NaN,NaN,10222.0462,2018-02-28T18:05:02.020000Z,NaN,NaN,NaN,NaN,16069.046199999999,2018-02-28T18:06:00.490000Z,['BH1' 'BH2' 'BHZ'],4.563036164982219,5.370167118531915,125.006,5.205,NaN,10.883522481819128,35.0,origid=614145797,-6.4216,142.8402,4.53,2018-02-28T18:03:47.220000Z,PMG,90.0,-9.4047,147.1597,IU,earthquake,2018-02-28T18:03:19.799538Z,100_CREW.hdf5,IU.PMG.BH_origid=614145797
219,NaN,NaN,NaN,NaN,9649.046199999999,2018-02-28T18:32:23.990000Z,NaN,NaN,NaN,NaN,15852.0462,2018-02-28T18:33:26.020000Z,['BH1' 'BH2' 'BHZ'],15.814147279224658,11.86192626074056,125.692,5.473,NaN,9.60441838188717,35.0,origid=614145798,-6.2144,142.6564,3.66,2018-02-28T18:31:04.800000Z,PMG,90.0,-9.4047,147.1597,IU,earthquake,2018-02-28T18:30:47.499538Z,100_CREW.hdf5,IU.PMG.BH_origid=614145798
220,11208.046199999999,2018-02-28T18:38:17.100000Z,NaN,NaN,11093.0462,2018-02-28T18:38:15.950000Z,NaN,NaN,NaN,NaN,17525.0462,2018-02-28T18:39:20.270000Z,['BH1' 'BH2' 'BHZ'],6.4812653747178794,9.569281822516654,127.377,5.706,NaN,11.024359663274907,10.0,origid=614145801,-5.9421,142.5662,3.8,2018-02-28T18:36:51.750000Z,PMG,90.0,-9.4047,147.1597,IU,earthquake,2018-02-28T18:36:25.019538Z,100_CREW.hdf5,IU.PMG.BH_origid=614145801
221,10534.0464,2018-02-28T22:29:47.570000Z,NaN,NaN,10496.0464,2018-02-28T22:29:47.190000Z,NaN,NaN,NaN,NaN,16046.0464,2018-02-28T22:30:42.690000Z,['BH1' 'BH2' 'BHZ'],4.098689568632136,8.025690760644917,129.736,4.976,NaN,11.808009985878321,10.0,origid=614145822,-6.2209,143.2829,4.59,2018-02-28T22:28:32.290000Z,PMG,90.0,-9.4047,147.1597,IU,earthquake,2018-02-28T22:28:02.229536Z,100_CREW.hdf5,IU.PMG.BH_origid=614145822
222,11979.0461,2018-02-26T04:42:32.800000Z,NaN,NaN,11993.0461,2018-02-26T04:42:32.940000Z,NaN,NaN,NaN,NaN,18761.0461,2018-02-26T04:43:40.620000Z,['BH1' 'BH2' 'BHZ'],2.6076676328705974,4.333361726864248,230.019,6.127999999999999,NaN,11.361646673745861,28.4462,origid=614150325,-5.466,151.9143,5.42,2018-02-26T04:41:01.090000Z,PMG,90.0,-9.4047,147.1597,IU,earthquake,2018-02-26T04:40:33.009539Z,100_CREW.hdf5,IU.PMG.BH_origid=614150325
223,5405.046200000001,2018-03-01T09:56:23.570000Z,NaN,NaN,NaN,NaN,8850.0462,2018-03-01T09:56:58.020000Z,NaN,NaN,NaN,NaN,['BH1' 'BH2' 'BHZ'],2.7342649901228695,3.3672036650567496,167.248,2.928,NaN,12.873169349246758,110.0,origid=614185711,-6.532,146.5042,4.24,2018-03-01T09:55:36.660000Z,PMG,90.0,-9.4047,147.1597,IU,earthquake,2018-03-01T09:55:29.519538Z,100_CREW.hdf5,IU.PMG.BH_origid=614185711
224,11769.046199999999,2018-03-01T21:11:44.600000Z,NaN,NaN,11726.0462,2018-03-01T21:11:44.170000Z,NaN,NaN,NaN,NaN,16853.0462,2018-03-01T21:12:35.440000Z,['BH1' 'BH2' 'BHZ'],10.09436676262744,9.741608845116367,121.437,4.35,NaN,11.56503647689941,35.0,origid=614185766,-7.1396,143.3987,3.57,2018-03-01T21:10:41.990000Z,PMG,90.0,-9.4047,147.1597,IU,earthquake,2018-03-01T21:09:46.909538Z,100_CREW.hdf5,IU.PMG.BH_origid=614185766
225,11701.046100000001,2018-03-02T03:15:59.100000Z,NaN,NaN,11653.0461,2018-03-02T03:15:58.620000Z,NaN,NaN,NaN,NaN,18075.0461,2018-03-02T03:17:02.840000Z,['BH1' 'BH2' 'BHZ'],10.016336838060708,11.844438150108555,125.461,5.568,NaN,7.7165614365318245,10.0,origid=614185805,-6.178,142.5652,5.0,2018-03-02T03:14:34.320000Z,PMG,90.0,-9.4047,147.1597,IU,earthquake,2018-03-02T03:14:02.089539Z,100_CREW.hdf5,IU.PMG.BH_origid=614185805
226,NaN,NaN,NaN,NaN,10051.0462,2018-03-02T04:11:27.490000Z,NaN,NaN,NaN,NaN,16474.0462,2018-03-02T04:12:31.720000Z,['BH1' 'BH2' 'BHZ'],8.48552057366427,7.912146915611218,127.184,5.573,NaN,9.056867928919273,10.0,origid=614185815,-6.0379,142.6618,3.98,2018-03-02T04:10:04.510000Z,PMG,90.0,-9.4047,147.1597,IU,earthquake,2018-03-02T04:09:46.979538Z,100_CREW.hdf5,IU.PMG.BH_origid=614185815
227,11342.0462,2018-03-02T09:38:23.300000Z,NaN,NaN,11311.0462,2018-03-02T09:38:22.990000Z,NaN,NaN,NaN,NaN,16516.0462,2018-03-02T09:39:15.040000Z,['BH1' 'BH2' 'BHZ'],5.719390890259348,6.072802786668718,132.281,4.713,NaN,7.847482751225644,10.0,origid=614185855,-6.2287,143.6271,3.78,2018-03-02T09:37:09.920000Z,PMG,90.0,-9.4047,147.1597,IU,earthquake,2018-03-02T09:36:29.879538Z,100_CREW.hdf5,IU.PMG.BH_origid=614185855
228,NaN,NaN,NaN,NaN,11047.0462,2018-03-02T15:55:55.070000Z,NaN,NaN,NaN,NaN,17702.0462,2018-03-02T15:57:01.620000Z,['BH1' 'BH2' 'BHZ'],8.036993383486598,8.496048815778213,124.8,5.956,NaN,14.752409585095942,10.0,origid=614185888,-6.011,142.2048,4.02,2018-03-02T15:54:26.270000Z,PMG,90.0,-9.4047,147.1597,IU,earthquake,2018-03-02T15:54:04.599538Z,100_CREW.hdf5,IU.PMG.BH_origid=614185888
229,NaN,NaN,NaN,NaN,10986.0464,2018-03-02T19:51:21.540000Z,NaN,NaN,NaN,NaN,17069.0464,2018-03-02T19:52:22.370000Z,['BH1' 'BH2' 'BHZ'],7.995225339709744,8.999125003214315,126.105,5.473,NaN,8.702745563866142,28.0,origid=614185914,-6.1818,142.6795,3.85,2018-03-02T19:50:01.130000Z,PMG,90.0,-9.4047,147.1597,IU,earthquake,2018-03-02T19:49:31.679536Z,100_CREW.hdf5,IU.PMG.BH_origid=614185914
230,NaN,NaN,NaN,NaN,9414.0462,2018-03-02T22:15:24.120000Z,NaN,NaN,NaN,NaN,15819.046199999999,2018-03-02T22:16:28.170000Z,['BH1' 'BH2' 'BHZ'],8.937347947255493,11.28971978904498,125.815,5.384,NaN,12.217356485288247,10.0,origid=614185929,-6.2563,142.7361,4.26,2018-03-02T22:14:05.240000Z,PMG,90.0,-9.4047,147.1597,IU,earthquake,2018-03-02T22:13:49.979538Z,100_CREW.hdf5,IU.PMG.BH_origid=614185929
231,NaN,NaN,NaN,NaN,10676.0464,2018-03-03T12:21:26.020000Z,NaN,NaN,NaN,NaN,16623.046400000003,2018-03-03T12:22:25.490000Z,['BH1' 'BH2' 'BHZ'],6.25604291075354,7.124168920185069,236.064,5.409,NaN,10.290782991682718,30.0,origid=614185997,-6.3896,151.7054,4.48,2018-03-03T12:20:06.570000Z,PMG,90.0,-9.4047,147.1597,IU,earthquake,2018-03-03T12:19:39.259536Z,100_CREW.hdf5,IU.PMG.BH_origid=614185997
232,9473.0462,2018-03-03T17:16:23.700000Z,NaN,NaN,9325.0462,2018-03-03T17:16:22.220000Z,NaN,NaN,NaN,NaN,14750.0462,2018-03-03T17:17:16.470000Z,['BH1' 'BH2' 'BHZ'],7.157596488294805,9.107557032907918,130.19299999999998,5.022,NaN,11.142896413526849,10.0,origid=614186026,-6.1606,143.2733,4.36,2018-03-03T17:15:06.280000Z,PMG,90.0,-9.4047,147.1597,IU,earthquake,2018-03-03T17:14:48.969538Z,100_CREW.hdf5,IU.PMG.BH_origid=614186026
233,12067.0462,2018-03-03T21:28:27.700000Z,NaN,NaN,11856.0462,2018-03-03T21:28:25.590000Z,NaN,NaN,NaN,NaN,17557.0462,2018-03-03T21:29:22.600000Z,['BH1' 'BH2' 'BHZ'],7.702432664129614,8.120939536079959,126.396,5.065,NaN,11.364218240883252,10.0,origid=614186052,-6.4003,143.0289,4.26,2018-03-03T21:27:09.540000Z,PMG,90.0,-9.4047,147.1597,IU,earthquake,2018-03-03T21:26:27.029538Z,100_CREW.hdf5,IU.PMG.BH_origid=614186052
234,NaN,NaN,NaN,NaN,10363.046199999999,2018-03-03T22:21:01.690000Z,NaN,NaN,NaN,NaN,16796.0462,2018-03-03T22:22:06.020000Z,['BH1' 'BH2' 'BHZ'],13.725341800307383,15.86781718987631,124.742,5.591,NaN,14.168448518124302,35.0,origid=614186056,-6.2226,142.5048,3.63,2018-03-03T22:19:41.460000Z,PMG,90.0,-9.4047,147.1597,IU,earthquake,2018-03-03T22:19:18.059538Z,100_CREW.hdf5,IU.PMG.BH_origid=614186056
235,NaN,NaN,NaN,NaN,11796.0462,2018-03-04T18:50:08.740000Z,NaN,NaN,NaN,NaN,18321.0462,2018-03-04T18:51:13.990000Z,['BH1' 'BH2' 'BHZ'],9.463081123529125,10.078778127151125,128.596,5.879,NaN,9.817461127946405,35.0,origid=614186164,-5.7378,142.5058,3.92,2018-03-04T18:48:43.530000Z,PMG,90.0,-9.4047,147.1597,IU,earthquake,2018-03-04T18:48:10.779538Z,100_CREW.hdf5,IU.PMG.BH_origid=614186164
236,10687.0462,2018-03-04T19:57:36.500000Z,NaN,NaN,10726.0462,2018-03-04T19:57:36.890000Z,NaN,NaN,NaN,NaN,16939.0462,2018-03-04T19:58:39.020000Z,['BH1' 'BH2' 'BHZ'],0.21666945196559442,0.7974051862351669,124.135,5.434,NaN,2.758441476026056,17.0865,origid=614186173,-6.3599,142.6023,5.7,2018-03-04T19:56:19.310000Z,PMG,90.0,-9.4047,147.1597,IU,earthquake,2018-03-04T19:55:49.629538Z,100_CREW.hdf5,IU.PMG.BH_origid=614186173
237,9127.046199999999,2018-03-04T20:25:23.700000Z,NaN,NaN,9061.0462,2018-03-04T20:25:23.040000Z,NaN,NaN,NaN,NaN,15089.0462,2018-03-04T20:26:23.320000Z,['BH1' 'BH2' 'BHZ'],8.21286416237834,8.520543387618817,123.791,5.289,NaN,9.388304387458591,10.0,origid=614186178,-6.4679,142.7066,4.8,2018-03-04T20:24:03.600000Z,PMG,90.0,-9.4047,147.1597,IU,earthquake,2018-03-04T20:23:52.429538Z,100_CREW.hdf5,IU.PMG.BH_origid=614186178
