,P_arrival_sample,P_arrival_time,Pg_arrival_sample,Pg_arrival_time,Pn_arrival_sample,Pn_arrival_time,S_arrival_sample,S_arrival_time,Sg_arrival_sample,Sg_arrival_time,Sn_arrival_sample,Sn_arrival_time,channels,noise_rms,p_rms,path_azimuth_deg,path_ep_distance_deg,path_takeoff_angle_deg,s_rms,source_depth_km,source_id,source_latitude_deg,source_longitude_deg,source_magnitude,source_origin_time,station_code,station_elevation_m,station_latitude_deg,station_longitude_deg,station_network_code,trace_category,trace_start_time,filename,example_name
285,NaN,NaN,NaN,NaN,10929.0462,2018-03-27T17:42:33.920000Z,NaN,NaN,NaN,NaN,16186.0462,2018-03-27T17:43:26.490000Z,['BH1' 'BH2' 'BHZ'],8.922125591880947,9.004728515953289,128.036,4.699,NaN,13.825824306039465,35.0,origid=614188675,-6.5078,143.4097,4.06,2018-03-27T17:41:25.490000Z,PMG,90.0,-9.4047,147.1597,IU,earthquake,2018-03-27T17:40:44.629538Z,100_CREW.hdf5,IU.PMG.BH_origid=614188675
286,10696.0462,2018-03-27T21:45:34.390000Z,NaN,NaN,NaN,NaN,17761.0462,2018-03-27T21:46:45.040000Z,NaN,NaN,NaN,NaN,['BH1' 'BH2' 'BHZ'],7.258935967725568,7.404272898634438,227.95,6.229,NaN,16.894136699729508,50.0,origid=614188699,-5.2289,151.8423,3.72,2018-03-27T21:44:04.970000Z,PMG,90.0,-9.4047,147.1597,IU,earthquake,2018-03-27T21:43:47.429538Z,100_CREW.hdf5,IU.PMG.BH_origid=614188699
287,9855.046199999999,2018-03-28T02:21:56.160000Z,NaN,NaN,9826.0462,2018-03-28T02:21:55.870000Z,NaN,NaN,NaN,NaN,15716.046199999999,2018-03-28T02:22:54.770000Z,['BH1' 'BH2' 'BHZ'],1.3992365572303496,4.2737877163756774,228.678,5.3039999999999985,NaN,10.564547926283986,43.0,origid=614188722,-5.8985,151.1934,5.0,2018-03-28T02:20:37.930000Z,PMG,90.0,-9.4047,147.1597,IU,earthquake,2018-03-28T02:20:17.609538Z,100_CREW.hdf5,IU.PMG.BH_origid=614188722
288,11541.046199999999,2018-03-29T22:16:52.910000Z,NaN,NaN,11397.0462,2018-03-29T22:16:51.470000Z,17939.0462,2018-03-29T22:17:56.890000Z,NaN,NaN,17902.0462,2018-03-29T22:17:56.520000Z,['BH1' 'BH2' 'BHZ'],12.090066020285773,5.336043956553713,229.123,5.772,NaN,10.926573714243077,57.0,origid=614188912,-5.6245,151.5785,4.89,2018-03-29T22:15:27.790000Z,PMG,90.0,-9.4047,147.1597,IU,earthquake,2018-03-29T22:14:57.499538Z,100_CREW.hdf5,IU.PMG.BH_origid=614188912
289,NaN,NaN,NaN,NaN,10379.0462,2018-03-30T00:56:41.040000Z,NaN,NaN,NaN,NaN,17259.0462,2018-03-30T00:57:49.840000Z,['BH1' 'BH2' 'BHZ'],3.8479970058410493,9.590469612578891,230.683,6.06,NaN,15.739857959185505,45.0,origid=614188938,-5.5644,151.9073,4.38,2018-03-30T00:55:13.580000Z,PMG,90.0,-9.4047,147.1597,IU,earthquake,2018-03-30T00:54:57.249538Z,100_CREW.hdf5,IU.PMG.BH_origid=614188938
290,11646.0462,2018-03-30T01:22:08.340000Z,NaN,NaN,NaN,NaN,17719.0462,2018-03-30T01:23:09.070000Z,NaN,NaN,NaN,NaN,['BH1' 'BH2' 'BHZ'],14.56950994220919,14.623121239463927,227.726,5.51,NaN,15.611898837702714,57.0,origid=614188940,-5.6934,151.28799999999995,3.74,2018-03-30T01:20:48.190000Z,PMG,90.0,-9.4047,147.1597,IU,earthquake,2018-03-30T01:20:11.879538Z,100_CREW.hdf5,IU.PMG.BH_origid=614188940
291,9012.046100000001,2018-03-30T02:33:46.640000Z,NaN,NaN,NaN,NaN,15540.046100000001,2018-03-30T02:34:51.920000Z,NaN,NaN,NaN,NaN,['BH1' 'BH2' 'BHZ'],12.932950880531344,12.745785451992278,230.408,5.97,NaN,14.367995758680058,50.0,origid=614188949,-5.599,151.8181,3.98,2018-03-30T02:32:19.400000Z,PMG,90.0,-9.4047,147.1597,IU,earthquake,2018-03-30T02:32:16.519539Z,100_CREW.hdf5,IU.PMG.BH_origid=614188949
292,NaN,NaN,NaN,NaN,10436.0462,2018-03-30T04:49:50.420000Z,NaN,NaN,NaN,NaN,16778.0462,2018-03-30T04:50:53.840000Z,['BH1' 'BH2' 'BHZ'],3.89769643430665,8.229990610995044,230.918,5.659,NaN,15.638850965283225,41.0,origid=614188963,-5.8364,151.6078,4.25,2018-03-30T04:48:28.420000Z,PMG,90.0,-9.4047,147.1597,IU,earthquake,2018-03-30T04:48:06.059538Z,100_CREW.hdf5,IU.PMG.BH_origid=614188963
293,9780.046199999999,2018-03-30T06:51:21.610000Z,NaN,NaN,9638.046199999999,2018-03-30T06:51:20.190000Z,15538.046199999999,2018-03-30T06:52:19.190000Z,NaN,NaN,NaN,NaN,['BH1' 'BH2' 'BHZ'],4.868851368636277,5.955381785465059,147.39600000000004,5.322,NaN,8.011418549362213,100.0,origid=614188970,-4.9017,144.2558,4.51,2018-03-30T06:50:02.320000Z,PMG,90.0,-9.4047,147.1597,IU,earthquake,2018-03-30T06:49:43.809538Z,100_CREW.hdf5,IU.PMG.BH_origid=614188970
294,NaN,NaN,NaN,NaN,11058.046199999999,2018-03-30T14:02:50.790000Z,NaN,NaN,NaN,NaN,17838.0462,2018-03-30T14:03:58.590000Z,['BH1' 'BH2' 'BHZ'],11.916048873082481,12.505044354794522,228.295,5.954,NaN,11.867860343578158,57.0,origid=614188999,-5.4394,151.6608,3.81,2018-03-30T14:01:25.640000Z,PMG,90.0,-9.4047,147.1597,IU,earthquake,2018-03-30T14:01:00.209538Z,100_CREW.hdf5,IU.PMG.BH_origid=614188999
295,NaN,NaN,NaN,NaN,9419.046199999999,2018-03-30T15:27:42.090000Z,NaN,NaN,NaN,NaN,15742.046199999999,2018-03-30T15:28:45.320000Z,['BH1' 'BH2' 'BHZ'],8.83687264062209,9.18901776416268,124.062,5.533,NaN,8.653376722930457,35.0,origid=614189007,-6.3106,142.5154,3.82,2018-03-30T15:26:22.370000Z,PMG,90.0,-9.4047,147.1597,IU,earthquake,2018-03-30T15:26:07.899538Z,100_CREW.hdf5,IU.PMG.BH_origid=614189007
296,NaN,NaN,NaN,NaN,11450.0462,2018-03-30T15:30:51.420000Z,NaN,NaN,NaN,NaN,17870.046199999997,2018-03-30T15:31:55.620000Z,['BH1' 'BH2' 'BHZ'],13.1025481253382,12.012609381640688,231.099,6.0,NaN,17.329718830814596,45.0,origid=614189009,-5.6371,151.8877,3.95,2018-03-30T15:29:23.900000Z,PMG,90.0,-9.4047,147.1597,IU,earthquake,2018-03-30T15:28:56.919538Z,100_CREW.hdf5,IU.PMG.BH_origid=614189009
297,NaN,NaN,NaN,NaN,11132.0462,2018-03-30T16:52:05.820000Z,NaN,NaN,NaN,NaN,17169.0462,2018-03-30T16:53:06.190000Z,['BH1' 'BH2' 'BHZ'],3.871828741952725,5.98239509520315,228.127,5.595,NaN,8.599164605032543,35.0,origid=614189016,-5.666,151.3781,4.14,2018-03-30T16:50:44.050000Z,PMG,90.0,-9.4047,147.1597,IU,earthquake,2018-03-30T16:50:14.499538Z,100_CREW.hdf5,IU.PMG.BH_origid=614189016
298,10234.0461,2018-03-31T00:53:48.170000Z,NaN,NaN,10128.0461,2018-03-31T00:53:47.110000Z,16656.0461,2018-03-31T00:54:52.390000Z,NaN,NaN,16552.0461,2018-03-31T00:54:51.350000Z,['BH1' 'BH2' 'BHZ'],2.3518584836910663,3.395422412645496,229.481,5.8439999999999985,NaN,9.81934185865512,57.0,origid=614189053,-5.6054,151.6582,4.53,2018-03-31T00:52:22.750000Z,PMG,90.0,-9.4047,147.1597,IU,earthquake,2018-03-31T00:52:05.829539Z,100_CREW.hdf5,IU.PMG.BH_origid=614189053
299,10039.0461,2018-03-31T01:01:21.620000Z,NaN,NaN,NaN,NaN,14421.046100000001,2018-03-31T01:02:05.440000Z,NaN,NaN,NaN,NaN,['BH1' 'BH2' 'BHZ'],3.846197632392656,4.48373083574439,180.861,3.766,NaN,12.01777690300411,195.0,origid=614189055,-5.6157,147.2163,4.34,2018-03-31T01:00:24.260000Z,PMG,90.0,-9.4047,147.1597,IU,earthquake,2018-03-31T00:59:41.229539Z,100_CREW.hdf5,IU.PMG.BH_origid=614189055
300,4265.0462,2018-03-31T03:52:43.890000Z,NaN,NaN,4224.0462,2018-03-31T03:52:43.480000Z,7945.0462,2018-03-31T03:53:20.690000Z,NaN,NaN,7952.0462,2018-03-31T03:53:20.760000Z,['BH1' 'BH2' 'BHZ'],2.3394645950227537,4.934907514521026,159.812,3.1910000000000003,NaN,13.372454089849741,122.0,origid=614189068,-6.393,146.0434,4.21,2018-03-31T03:51:54.050000Z,PMG,90.0,-9.4047,147.1597,IU,earthquake,2018-03-31T03:52:01.239538Z,100_CREW.hdf5,IU.PMG.BH_origid=614189068
301,9079.0462,2018-03-31T06:47:10.070000Z,NaN,NaN,9031.0462,2018-03-31T06:47:09.590000Z,15519.046199999999,2018-03-31T06:48:14.470000Z,NaN,NaN,NaN,NaN,['BH1' 'BH2' 'BHZ'],8.954662358797895,10.722207701890985,232.703,5.746,NaN,7.646092173936414,36.0,origid=614189078,-5.9247,151.7885,4.52,2018-03-31T06:45:45.930000Z,PMG,90.0,-9.4047,147.1597,IU,earthquake,2018-03-31T06:45:39.279538Z,100_CREW.hdf5,IU.PMG.BH_origid=614189078
302,9967.0464,2018-03-31T21:19:53.300000Z,NaN,NaN,9851.0464,2018-03-31T21:19:52.140000Z,NaN,NaN,NaN,NaN,15621.0464,2018-03-31T21:20:49.840000Z,['BH1' 'BH2' 'BHZ'],7.764925588743586,8.846996110145039,125.831,5.1610000000000005,NaN,10.009155107856703,35.0,origid=614189132,-6.3851,142.9202,4.47,2018-03-31T21:18:38.390000Z,PMG,90.0,-9.4047,147.1597,IU,earthquake,2018-03-31T21:18:13.629536Z,100_CREW.hdf5,IU.PMG.BH_origid=614189132
303,NaN,NaN,NaN,NaN,11009.0462,2018-04-01T04:27:20.190000Z,NaN,NaN,NaN,NaN,17437.0462,2018-04-01T04:28:24.470000Z,['BH1' 'BH2' 'BHZ'],3.475194191426368,5.083257098494597,231.236,5.6560000000000015,NaN,13.382422134235084,41.0,origid=614339271,-5.8628,151.6258,4.42,2018-04-01T04:25:58.300000Z,PMG,90.0,-9.4047,147.1597,IU,earthquake,2018-04-01T04:25:30.099538Z,100_CREW.hdf5,IU.PMG.BH_origid=614339271
304,NaN,NaN,NaN,NaN,9253.0462,2018-04-01T07:54:05.170000Z,NaN,NaN,NaN,NaN,15680.0462,2018-04-01T07:55:09.440000Z,['BH1' 'BH2' 'BHZ'],10.782847722490361,10.833360521411402,230.15,5.757999999999999,NaN,12.573621254598331,10.0,origid=614339287,-5.7134,151.6361,4.08,2018-04-01T07:52:38.450000Z,PMG,90.0,-9.4047,147.1597,IU,earthquake,2018-04-01T07:52:32.639538Z,100_CREW.hdf5,IU.PMG.BH_origid=614339287
305,NaN,NaN,NaN,NaN,10777.0461,2018-04-01T13:53:33.770000Z,NaN,NaN,NaN,NaN,16894.0461,2018-04-01T13:54:34.940000Z,['BH1' 'BH2' 'BHZ'],12.915718087323478,13.714620619937689,122.575,5.445,NaN,11.897225750625536,35.0,origid=614339318,-6.4796,142.5105,3.55,2018-04-01T13:52:14.640000Z,PMG,90.0,-9.4047,147.1597,IU,earthquake,2018-04-01T13:51:45.999539Z,100_CREW.hdf5,IU.PMG.BH_origid=614339318
306,9171.0462,2018-04-02T08:00:33.040000Z,NaN,NaN,9143.0462,2018-04-02T08:00:32.760000Z,16234.0462,2018-04-02T08:01:43.670000Z,NaN,NaN,NaN,NaN,['BH1' 'BH2' 'BHZ'],10.401698187718397,12.315863555498701,134.266,6.747000000000001,NaN,8.570483741735767,105.0,origid=614339389,-4.6888,142.2681,4.48,2018-04-02T07:58:55.740000Z,PMG,90.0,-9.4047,147.1597,IU,earthquake,2018-04-02T07:59:01.329538Z,100_CREW.hdf5,IU.PMG.BH_origid=614339389
307,11259.0462,2018-04-03T13:25:15.020000Z,NaN,NaN,11183.046199999999,2018-04-03T13:25:14.260000Z,17661.0462,2018-04-03T13:26:19.040000Z,NaN,NaN,NaN,NaN,['BH1' 'BH2' 'BHZ'],3.023783756737855,3.7004464502467505,229.314,5.725,NaN,14.183235217807217,57.0,origid=614339550,-5.67,151.5553,4.47,2018-04-03T13:23:51.460000Z,PMG,90.0,-9.4047,147.1597,IU,earthquake,2018-04-03T13:23:22.429538Z,100_CREW.hdf5,IU.PMG.BH_origid=614339550
308,NaN,NaN,NaN,NaN,11906.0462,2018-04-03T13:52:28.840000Z,NaN,NaN,NaN,NaN,17336.0462,2018-04-03T13:53:23.140000Z,['BH1' 'BH2' 'BHZ'],7.101776751412469,8.114367893415075,125.996,5.039,NaN,8.224369399646397,35.0,origid=614339552,-6.4442,143.0288,3.77,2018-04-03T13:51:14.890000Z,PMG,90.0,-9.4047,147.1597,IU,earthquake,2018-04-03T13:50:29.779538Z,100_CREW.hdf5,IU.PMG.BH_origid=614339552
309,NaN,NaN,NaN,NaN,11154.0462,2018-04-04T03:44:12.440000Z,NaN,NaN,NaN,NaN,15924.0462,2018-04-04T03:45:00.140000Z,['BH1' 'BH2' 'BHZ'],10.195286093730484,14.76870910609022,129.128,4.419,NaN,9.009109787592038,35.0,origid=614339615,-6.613,143.6861,4.27,2018-04-04T03:43:07.340000Z,PMG,90.0,-9.4047,147.1597,IU,earthquake,2018-04-04T03:42:20.899538Z,100_CREW.hdf5,IU.PMG.BH_origid=614339615
310,10756.0462,2018-04-04T08:01:35.920000Z,NaN,NaN,10744.046199999999,2018-04-04T08:01:35.800000Z,17243.0462,2018-04-04T08:02:40.790000Z,NaN,NaN,NaN,NaN,['BH1' 'BH2' 'BHZ'],9.219756548774576,11.48399748228204,234.655,5.937,NaN,13.480518283205738,36.0,origid=614339635,-5.9752,152.0639,4.51,2018-04-04T08:00:09.200000Z,PMG,90.0,-9.4047,147.1597,IU,earthquake,2018-04-04T07:59:48.359538Z,100_CREW.hdf5,IU.PMG.BH_origid=614339635
311,NaN,NaN,NaN,NaN,3793.0461999999998,2018-04-04T10:31:55.940000Z,NaN,NaN,NaN,NaN,9253.0462,2018-04-04T10:32:50.540000Z,['BH1' 'BH2' 'BHZ'],10.434709573049295,11.36130234471737,125.799,4.883,NaN,10.281784840108818,10.0,origid=614339648,-6.5497,143.1472,4.26,2018-04-04T10:30:42.600000Z,PMG,90.0,-9.4047,147.1597,IU,earthquake,2018-04-04T10:31:18.009538Z,100_CREW.hdf5,IU.PMG.BH_origid=614339648
312,NaN,NaN,NaN,NaN,10201.0462,2018-04-04T15:46:48.370000Z,NaN,NaN,NaN,NaN,15436.0462,2018-04-04T15:47:40.720000Z,['BH1' 'BH2' 'BHZ'],6.7960391261188535,11.300798355700595,127.766,4.752,NaN,12.082997299685779,10.0,origid=614339659,-6.4929999999999986,143.3532,4.79,2018-04-04T15:45:35.120000Z,PMG,90.0,-9.4047,147.1597,IU,earthquake,2018-04-04T15:45:06.359538Z,100_CREW.hdf5,IU.PMG.BH_origid=614339659
313,11544.046199999999,2018-04-05T00:14:32.960000Z,NaN,NaN,11471.0462,2018-04-05T00:14:32.230000Z,14653.0462,2018-04-05T00:15:04.050000Z,NaN,NaN,14500.0462,2018-04-05T00:15:02.520000Z,['BH1' 'BH2' 'BHZ'],3.7753635965914696,5.780911242979672,189.476,2.863,NaN,7.702923420994366,50.0,origid=614339699,-6.5638,147.6365,4.16,2018-04-05T00:13:46.910000Z,PMG,90.0,-9.4047,147.1597,IU,earthquake,2018-04-05T00:12:37.519538Z,100_CREW.hdf5,IU.PMG.BH_origid=614339699
314,11805.0461,2018-04-07T02:58:08.800000Z,NaN,NaN,11837.046100000001,2018-04-07T02:58:09.120000Z,NaN,NaN,NaN,NaN,17879.0461,2018-04-07T02:59:09.540000Z,['BH1' 'BH2' 'BHZ'],0.214819901103623,1.066894215627201,124.198,5.282,NaN,2.8507356747790213,10.0,origid=614339898,-6.4401,142.7336,5.18,2018-04-07T02:56:50.100000Z,PMG,90.0,-9.4047,147.1597,IU,earthquake,2018-04-07T02:56:10.749539Z,100_CREW.hdf5,IU.PMG.BH_origid=614339898
315,NaN,NaN,NaN,NaN,9606.0462,2018-04-07T05:16:49.620000Z,NaN,NaN,NaN,NaN,16491.0462,2018-04-07T05:17:58.470000Z,['BH1' 'BH2' 'BHZ'],0.546001015425857,3.8275757193722195,231.249,6.159,NaN,16.999931174903505,49.3137,origid=614339907,-5.5499,152.0237,5.3,2018-04-07T05:15:21.100000Z,PMG,90.0,-9.4047,147.1597,IU,earthquake,2018-04-07T05:15:13.559538Z,100_CREW.hdf5,IU.PMG.BH_origid=614339907
316,NaN,NaN,NaN,NaN,10385.046199999999,2018-04-07T22:22:28.420000Z,NaN,NaN,NaN,NaN,16412.0462,2018-04-07T22:23:28.690000Z,['BH1' 'BH2' 'BHZ'],13.3065518394622,12.973349415525819,124.999,5.316,NaN,7.980762365060561,35.0,origid=614339985,-6.3591,142.7481,4.0,2018-04-07T22:21:11.630000Z,PMG,90.0,-9.4047,147.1597,IU,earthquake,2018-04-07T22:20:44.569538Z,100_CREW.hdf5,IU.PMG.BH_origid=614339985
317,NaN,NaN,NaN,NaN,11050.0462,2018-04-08T16:15:35.770000Z,NaN,NaN,NaN,NaN,17342.046199999997,2018-04-08T16:16:38.690000Z,['BH1' 'BH2' 'BHZ'],7.284825684277497,8.514592349951279,125.791,5.412000000000001,NaN,9.916342415737603,35.0,origid=614340056,-6.2421,142.7121,3.87,2018-04-08T16:14:18.020000Z,PMG,90.0,-9.4047,147.1597,IU,earthquake,2018-04-08T16:13:45.269538Z,100_CREW.hdf5,IU.PMG.BH_origid=614340056
318,10074.046199999999,2018-04-09T02:19:18.800000Z,NaN,NaN,10126.0462,2018-04-09T02:19:19.320000Z,NaN,NaN,NaN,NaN,15783.0462,2018-04-09T02:20:15.890000Z,['BH1' 'BH2' 'BHZ'],1.317710206991284,4.280283475529538,123.932,5.172999999999999,NaN,6.6490835103738934,35.0,origid=614340112,-6.5208,142.8107,5.05,2018-04-09T02:18:04.590000Z,PMG,90.0,-9.4047,147.1597,IU,earthquake,2018-04-09T02:17:38.059538Z,100_CREW.hdf5,IU.PMG.BH_origid=614340112
319,9644.0461,2018-04-09T11:36:34.790000Z,NaN,NaN,NaN,NaN,16099.046100000001,2018-04-09T11:37:39.340000Z,NaN,NaN,NaN,NaN,['BH1' 'BH2' 'BHZ'],8.915564371447212,8.504570893596032,233.167,5.759,NaN,10.183153452346463,50.0,origid=614340142,-5.9546,151.8275,4.01,2018-04-09T11:35:11.560000Z,PMG,90.0,-9.4047,147.1597,IU,earthquake,2018-04-09T11:34:58.349539Z,100_CREW.hdf5,IU.PMG.BH_origid=614340142
320,NaN,NaN,NaN,NaN,6095.0462,2018-04-09T21:21:09.940000Z,NaN,NaN,NaN,NaN,11888.046199999999,2018-04-09T21:22:07.870000Z,['BH1' 'BH2' 'BHZ'],6.674558850289672,8.019204969936125,123.896,5.1720000000000015,NaN,9.104550675497164,35.0,origid=614340184,-6.5241,142.8096,3.95,2018-04-09T21:19:55.390000Z,PMG,90.0,-9.4047,147.1597,IU,earthquake,2018-04-09T21:20:08.989538Z,100_CREW.hdf5,IU.PMG.BH_origid=614340184
321,NaN,NaN,NaN,NaN,9899.046199999999,2018-04-10T18:28:38.990000Z,NaN,NaN,NaN,NaN,16582.0462,2018-04-10T18:29:45.820000Z,['BH1' 'BH2' 'BHZ'],15.57626881436466,11.142578590266229,127.429,5.733,NaN,11.803726989475573,28.0,origid=614340275,-5.9215,142.5476,3.95,2018-04-10T18:27:16.420000Z,PMG,90.0,-9.4047,147.1597,IU,earthquake,2018-04-10T18:26:59.999538Z,100_CREW.hdf5,IU.PMG.BH_origid=614340275
322,NaN,NaN,NaN,NaN,11537.0462,2018-04-10T20:55:32.490000Z,NaN,NaN,NaN,NaN,16285.046199999999,2018-04-10T20:56:19.970000Z,['BH1' 'BH2' 'BHZ'],1.9034807790479331,3.9989723450873966,234.421,4.232,NaN,14.124632367389797,10.0,origid=614340288,-6.9423,150.64600000000004,4.68,2018-04-10T20:54:25.650000Z,PMG,90.0,-9.4047,147.1597,IU,earthquake,2018-04-10T20:53:37.119538Z,100_CREW.hdf5,IU.PMG.BH_origid=614340288
323,NaN,NaN,NaN,NaN,3922.0461999999998,2018-04-11T23:13:45.720000Z,NaN,NaN,NaN,NaN,7872.0462,2018-04-11T23:14:25.220000Z,['BH1' 'BH2' 'BHZ'],3.9177485217436554,8.382273059282895,169.449,3.479,NaN,11.634377066212146,52.0,origid=614340412,-5.9644,146.5138,4.35,2018-04-11T23:12:54.160000Z,PMG,90.0,-9.4047,147.1597,IU,earthquake,2018-04-11T23:13:06.499538Z,100_CREW.hdf5,IU.PMG.BH_origid=614340412
324,NaN,NaN,NaN,NaN,11297.0461,2018-04-12T08:57:34.140000Z,NaN,NaN,NaN,NaN,18165.0461,2018-04-12T08:58:42.820000Z,['BH1' 'BH2' 'BHZ'],5.378756073162717,5.367251616645832,238.567,6.1770000000000005,NaN,10.23359097763688,38.0,origid=614340455,-6.1948,152.4981,4.4,2018-04-12T08:56:05.620000Z,PMG,90.0,-9.4047,147.1597,IU,earthquake,2018-04-12T08:55:41.169539Z,100_CREW.hdf5,IU.PMG.BH_origid=614340455
325,NaN,NaN,NaN,NaN,11509.0464,2018-04-12T14:24:14.940000Z,NaN,NaN,NaN,NaN,17234.0464,2018-04-12T14:25:12.190000Z,['BH1' 'BH2' 'BHZ'],9.823633205386164,10.176552190780908,124.131,4.987,NaN,11.185154446288335,35.0,origid=614340482,-6.6098,142.9771,3.85,2018-04-12T14:23:02.890000Z,PMG,90.0,-9.4047,147.1597,IU,earthquake,2018-04-12T14:22:19.849536Z,100_CREW.hdf5,IU.PMG.BH_origid=614340482
326,NaN,NaN,NaN,NaN,11383.046199999999,2018-04-13T03:59:06.870000Z,NaN,NaN,NaN,NaN,17833.0462,2018-04-13T04:00:11.370000Z,['BH1' 'BH2' 'BHZ'],3.448568468397061,3.7633740248143566,123.503,5.591,NaN,5.514996082477421,10.0,origid=614340544,-6.3246,142.4363,5.17,2018-04-13T03:57:43.660000Z,PMG,90.0,-9.4047,147.1597,IU,earthquake,2018-04-13T03:57:13.039538Z,100_CREW.hdf5,IU.PMG.BH_origid=614340544
327,10772.0462,2018-04-13T09:28:48.570000Z,NaN,NaN,10599.046199999999,2018-04-13T09:28:46.840000Z,NaN,NaN,NaN,NaN,17282.0462,2018-04-13T09:29:53.670000Z,['BH1' 'BH2' 'BHZ'],11.464696911932375,10.390034176980668,127.839,5.792999999999998,NaN,18.02556461417696,28.0,origid=614340569,-5.8519,142.5252,4.09,2018-04-13T09:27:23.230000Z,PMG,90.0,-9.4047,147.1597,IU,earthquake,2018-04-13T09:27:00.849538Z,100_CREW.hdf5,IU.PMG.BH_origid=614340569
328,4769.0462,2018-04-14T01:27:02.540000Z,NaN,NaN,4795.0462,2018-04-14T01:27:02.800000Z,9054.0462,2018-04-14T01:27:45.390000Z,NaN,NaN,NaN,NaN,['BH1' 'BH2' 'BHZ'],0.6929165865592809,2.1561012082285766,180.7,3.829,NaN,9.579822450376508,195.0,origid=614340630,-5.5525,147.2064,4.06,2018-04-14T01:26:05.920000Z,PMG,90.0,-9.4047,147.1597,IU,earthquake,2018-04-14T01:26:14.849538Z,100_CREW.hdf5,IU.PMG.BH_origid=614340630
329,NaN,NaN,NaN,NaN,9475.0462,2018-04-14T22:31:40.990000Z,NaN,NaN,NaN,NaN,15333.0462,2018-04-14T22:32:39.570000Z,['BH1' 'BH2' 'BHZ'],13.153103373980327,18.83273524122392,126.26,4.9030000000000005,NaN,9.27789251322115,35.0,origid=614340707,-6.5054,143.1538,3.56,2018-04-14T22:30:31.150000Z,PMG,90.0,-9.4047,147.1597,IU,earthquake,2018-04-14T22:30:06.239538Z,100_CREW.hdf5,IU.PMG.BH_origid=614340707
330,NaN,NaN,NaN,NaN,9807.0461,2018-04-16T06:11:02.070000Z,NaN,NaN,NaN,NaN,16024.046100000001,2018-04-16T06:12:04.240000Z,['BH1' 'BH2' 'BHZ'],0.9577940783070351,2.3983823063056238,127.5,5.529,NaN,8.009870631185972,28.0,origid=614340837,-6.0397,142.7161,5.13,2018-04-16T06:09:42.280000Z,PMG,90.0,-9.4047,147.1597,IU,earthquake,2018-04-16T06:09:23.999539Z,100_CREW.hdf5,IU.PMG.BH_origid=614340837
331,11914.0461,2018-04-17T14:25:29.870000Z,NaN,NaN,NaN,NaN,18386.0461,2018-04-17T14:26:34.590000Z,NaN,NaN,NaN,NaN,['BH1' 'BH2' 'BHZ'],1.3779987528715805,2.028399471558883,223.784,5.839,NaN,14.010135921255252,144.7603,origid=614340966,-5.1796,151.2501,4.58,2018-04-17T14:24:03.770000Z,PMG,90.0,-9.4047,147.1597,IU,earthquake,2018-04-17T14:23:30.729539Z,100_CREW.hdf5,IU.PMG.BH_origid=614340966
