,P_arrival_sample,P_arrival_time,Pg_arrival_sample,Pg_arrival_time,Pn_arrival_sample,Pn_arrival_time,S_arrival_sample,S_arrival_time,Sg_arrival_sample,Sg_arrival_time,Sn_arrival_sample,Sn_arrival_time,channels,noise_rms,p_rms,path_azimuth_deg,path_ep_distance_deg,path_takeoff_angle_deg,s_rms,source_depth_km,source_id,source_latitude_deg,source_longitude_deg,source_magnitude,source_origin_time,station_code,station_elevation_m,station_latitude_deg,station_longitude_deg,station_network_code,trace_category,trace_start_time,filename,example_name
332,NaN,NaN,NaN,NaN,11118.0461,2018-04-18T21:59:03.790000Z,NaN,NaN,NaN,NaN,16571.0461,2018-04-18T21:59:58.320000Z,['BH1' 'BH2' 'BHZ'],10.566716350693744,9.713544195721646,124.203,4.934,NaN,7.184910261758916,35.0,origid=614341101,-6.6341,143.0251,4.63,2018-04-18T21:57:52.530000Z,PMG,90.0,-9.4047,147.1597,IU,earthquake,2018-04-18T21:57:12.609539Z,100_CREW.hdf5,IU.PMG.BH_origid=614341101
333,10273.0462,2018-04-22T03:22:06.090000Z,NaN,NaN,NaN,NaN,16623.046199999997,2018-04-22T03:23:09.590000Z,NaN,NaN,NaN,NaN,['BH1' 'BH2' 'BHZ'],20.1471235394919,20.25519804695663,227.909,5.789,NaN,11.724008673413808,57.0,origid=614341436,-5.5201,151.5092,3.82,2018-04-22T03:20:41.030000Z,PMG,90.0,-9.4047,147.1597,IU,earthquake,2018-04-22T03:20:23.359538Z,100_CREW.hdf5,IU.PMG.BH_origid=614341436
334,11098.0462,2018-04-22T18:54:41.540000Z,NaN,NaN,11016.046199999999,2018-04-22T18:54:40.720000Z,17443.0462,2018-04-22T18:55:44.990000Z,NaN,NaN,NaN,NaN,['BH1' 'BH2' 'BHZ'],7.757773233473694,9.491551965116763,233.145,5.671,NaN,9.504970166032125,36.0,origid=614341500,-6.0051,151.7554,4.26,2018-04-22T18:53:18.100000Z,PMG,90.0,-9.4047,147.1597,IU,earthquake,2018-04-22T18:52:50.559538Z,100_CREW.hdf5,IU.PMG.BH_origid=614341500
335,NaN,NaN,NaN,NaN,11120.0461,2018-04-23T09:09:27.440000Z,NaN,NaN,NaN,NaN,17340.0461,2018-04-23T09:10:29.640000Z,['BH1' 'BH2' 'BHZ'],6.284906201685721,6.459378999920266,125.262,5.52,NaN,15.798138088755916,35.0,origid=614341553,-6.2215,142.5935,4.41,2018-04-23T09:08:08.450000Z,PMG,90.0,-9.4047,147.1597,IU,earthquake,2018-04-23T09:07:36.239539Z,100_CREW.hdf5,IU.PMG.BH_origid=614341553
336,10291.0461,2018-04-23T17:23:13.190000Z,NaN,NaN,NaN,NaN,16584.0461,2018-04-23T17:24:16.120000Z,NaN,NaN,NaN,NaN,['BH1' 'BH2' 'BHZ'],12.657987057756808,11.870474459993606,223.338,5.685,NaN,8.148642645390726,65.0,origid=614341604,-5.2597,151.11,3.77,2018-04-23T17:21:51.210000Z,PMG,90.0,-9.4047,147.1597,IU,earthquake,2018-04-23T17:21:30.279539Z,100_CREW.hdf5,IU.PMG.BH_origid=614341604
337,4128.0461000000005,2018-04-23T18:07:38.720000Z,NaN,NaN,4085.0461000000005,2018-04-23T18:07:38.290000Z,8778.0461,2018-04-23T18:08:25.220000Z,NaN,NaN,NaN,NaN,['BH1' 'BH2' 'BHZ'],1.1313598773319617,2.0934680622699324,176.643,3.925,NaN,11.190681947507928,250.0,origid=614341611,-5.4626,146.9262,3.9,2018-04-23T18:06:37.570000Z,PMG,90.0,-9.4047,147.1597,IU,earthquake,2018-04-23T18:06:57.439539Z,100_CREW.hdf5,IU.PMG.BH_origid=614341611
338,9172.0462,2018-04-24T22:32:06.820000Z,NaN,NaN,9202.046199999999,2018-04-24T22:32:07.120000Z,15989.0462,2018-04-24T22:33:14.990000Z,NaN,NaN,NaN,NaN,['BH1' 'BH2' 'BHZ'],10.886868530475406,12.301410428936773,233.515,6.332999999999998,NaN,14.685251180498666,35.0,origid=614341741,-5.6438,152.3155,4.2,2018-04-24T22:30:35.120000Z,PMG,90.0,-9.4047,147.1597,IU,earthquake,2018-04-24T22:30:35.099538Z,100_CREW.hdf5,IU.PMG.BH_origid=614341741
339,NaN,NaN,NaN,NaN,11047.0462,2018-04-25T10:04:04.640000Z,NaN,NaN,NaN,NaN,16632.0462,2018-04-25T10:05:00.490000Z,['BH1' 'BH2' 'BHZ'],11.122961063246429,12.749346077946218,125.096,4.9110000000000005,NaN,10.820295307755625,35.0,origid=614341786,-6.5831,143.0885,4.03,2018-04-25T10:02:53.410000Z,PMG,90.0,-9.4047,147.1597,IU,earthquake,2018-04-25T10:02:14.169538Z,100_CREW.hdf5,IU.PMG.BH_origid=614341786
340,9849.046199999999,2018-04-26T07:30:40.840000Z,NaN,NaN,NaN,NaN,16579.0462,2018-04-26T07:31:48.140000Z,NaN,NaN,NaN,NaN,['BH1' 'BH2' 'BHZ'],3.835199404906449,4.011771644989185,220.622,6.0360000000000005,NaN,18.590470303944908,150.0,origid=614341874,-4.8097,151.1377,3.66,2018-04-26T07:29:11.910000Z,PMG,90.0,-9.4047,147.1597,IU,earthquake,2018-04-26T07:29:02.349538Z,100_CREW.hdf5,IU.PMG.BH_origid=614341874
341,10427.046199999999,2018-04-26T10:55:52.290000Z,NaN,NaN,10511.0462,2018-04-26T10:55:53.130000Z,17222.0462,2018-04-26T10:57:00.240000Z,NaN,NaN,NaN,NaN,['BH1' 'BH2' 'BHZ'],5.776229606771998,6.434652174579661,228.503,6.057,NaN,16.31954606132362,70.0,origid=614341897,-5.3884,151.7527,4.14,2018-04-26T10:54:25.160000Z,PMG,90.0,-9.4047,147.1597,IU,earthquake,2018-04-26T10:54:08.019538Z,100_CREW.hdf5,IU.PMG.BH_origid=614341897
342,11794.046199999999,2018-04-26T18:25:40.370000Z,NaN,NaN,NaN,NaN,17986.0462,2018-04-26T18:26:42.290000Z,NaN,NaN,NaN,NaN,['BH1' 'BH2' 'BHZ'],7.010176527122196,9.49248579198718,217.367,5.309,NaN,11.771322376426323,150.0,origid=614341933,-5.1694,150.4219,3.45,2018-04-26T18:24:22.110000Z,PMG,90.0,-9.4047,147.1597,IU,earthquake,2018-04-26T18:23:42.429538Z,100_CREW.hdf5,IU.PMG.BH_origid=614341933
343,NaN,NaN,NaN,NaN,10090.0462,2018-04-28T12:37:40.670000Z,NaN,NaN,NaN,NaN,15545.046199999999,2018-04-28T12:38:35.220000Z,['BH1' 'BH2' 'BHZ'],4.845781749201072,6.645883767261156,128.66299999999998,4.8039999999999985,NaN,8.237434898928031,10.0,origid=614342115,-6.4014,143.359,4.8,2018-04-28T12:36:26.650000Z,PMG,90.0,-9.4047,147.1597,IU,earthquake,2018-04-28T12:35:59.769538Z,100_CREW.hdf5,IU.PMG.BH_origid=614342115
344,10493.0462,2018-04-29T02:45:51.640000Z,NaN,NaN,NaN,NaN,14656.0462,2018-04-29T02:46:33.270000Z,NaN,NaN,NaN,NaN,['BH1' 'BH2' 'BHZ'],6.281676476776015,9.67521371789008,181.816,3.903,NaN,11.881516694423452,35.0,origid=614342160,-5.4799,147.2842,3.87,2018-04-29T02:44:52.530000Z,PMG,90.0,-9.4047,147.1597,IU,earthquake,2018-04-29T02:44:06.709538Z,100_CREW.hdf5,IU.PMG.BH_origid=614342160
345,9850.0464,2018-04-29T13:09:45.520000Z,NaN,NaN,NaN,NaN,15975.0464,2018-04-29T13:10:46.770000Z,NaN,NaN,NaN,NaN,['BH1' 'BH2' 'BHZ'],4.541546493825733,6.284136051021401,228.71400000000003,5.537000000000001,NaN,11.736414337189272,10.0,origid=614342203,-5.7479,151.3725,4.51,2018-04-29T13:08:18.830000Z,PMG,90.0,-9.4047,147.1597,IU,earthquake,2018-04-29T13:08:07.019536Z,100_CREW.hdf5,IU.PMG.BH_origid=614342203
346,4294.0462,2018-05-01T01:29:12.440000Z,NaN,NaN,4311.0462,2018-05-01T01:29:12.610000Z,8349.046199999999,2018-05-01T01:29:52.990000Z,NaN,NaN,NaN,NaN,['BH1' 'BH2' 'BHZ'],1.7577010444531178,7.087474546367772,159.66,3.659,NaN,12.876578828238534,111.646,origid=614569633,-5.9551,145.871,4.84,2018-05-01T01:28:17.980000Z,PMG,90.0,-9.4047,147.1597,IU,earthquake,2018-05-01T01:28:29.499538Z,100_CREW.hdf5,IU.PMG.BH_origid=614569633
347,3599.0462,2018-05-01T14:07:06.090000Z,NaN,NaN,NaN,NaN,7867.0462,2018-05-01T14:07:48.770000Z,NaN,NaN,NaN,NaN,['BH1' 'BH2' 'BHZ'],0.5086082645388821,3.677901996620666,182.328,3.802,NaN,12.078036303537123,179.306,origid=614569691,-5.5827,147.3154,4.45,2018-05-01T14:06:09.120000Z,PMG,90.0,-9.4047,147.1597,IU,earthquake,2018-05-01T14:06:30.099538Z,100_CREW.hdf5,IU.PMG.BH_origid=614569691
348,2861.0461999999998,2018-05-02T07:06:09.220000Z,NaN,NaN,2768.0461999999998,2018-05-02T07:06:08.290000Z,7008.0462,2018-05-02T07:06:50.690000Z,NaN,NaN,NaN,NaN,['BH1' 'BH2' 'BHZ'],0.8840777794339411,3.516185520450606,209.827,3.624,NaN,11.795640019025027,60.0,origid=614569770,-6.2453,148.9849,4.01,2018-05-02T07:05:13.160000Z,PMG,90.0,-9.4047,147.1597,IU,earthquake,2018-05-02T07:05:40.609538Z,100_CREW.hdf5,IU.PMG.BH_origid=614569770
349,NaN,NaN,NaN,NaN,11906.0462,2018-05-03T06:55:07.440000Z,NaN,NaN,NaN,NaN,17636.0462,2018-05-03T06:56:04.740000Z,['BH1' 'BH2' 'BHZ'],10.513924608060119,7.346390295067034,129.046,4.968,NaN,12.096931639603588,35.0,origid=614569855,-6.2732,143.2508,4.19,2018-05-03T06:53:55.380000Z,PMG,90.0,-9.4047,147.1597,IU,earthquake,2018-05-03T06:53:08.379538Z,100_CREW.hdf5,IU.PMG.BH_origid=614569855
350,11225.0462,2018-05-04T12:22:02.620000Z,NaN,NaN,11317.0462,2018-05-04T12:22:03.540000Z,18987.0462,2018-05-04T12:23:20.240000Z,NaN,NaN,NaN,NaN,['BH1' 'BH2' 'BHZ'],5.673114328931562,9.733963060368385,137.465,7.138,NaN,10.95288913254954,115.0,origid=614569965,-4.133,142.2752,4.48,2018-05-04T12:20:20.500000Z,PMG,90.0,-9.4047,147.1597,IU,earthquake,2018-05-04T12:20:10.369538Z,100_CREW.hdf5,IU.PMG.BH_origid=614569965
351,3582.0461999999998,2018-05-04T20:06:21.820000Z,NaN,NaN,NaN,NaN,8014.0462,2018-05-04T20:07:06.140000Z,NaN,NaN,NaN,NaN,['BH1' 'BH2' 'BHZ'],2.891602795562388,6.855986483105687,220.295,3.735,NaN,13.699903464999773,49.0,origid=614570006,-6.5455,149.6062,3.83,2018-05-04T20:05:25.400000Z,PMG,90.0,-9.4047,147.1597,IU,earthquake,2018-05-04T20:05:45.999538Z,100_CREW.hdf5,IU.PMG.BH_origid=614570006
352,9278.0461,2018-05-05T00:49:38.570000Z,NaN,NaN,NaN,NaN,15268.046100000001,2018-05-05T00:50:38.470000Z,NaN,NaN,NaN,NaN,['BH1' 'BH2' 'BHZ'],8.093268015164671,8.907335155957467,232.356,5.506,NaN,16.525056007579444,41.0,origid=614570031,-6.0427,151.5747,3.67,2018-05-05T00:48:17.690000Z,PMG,90.0,-9.4047,147.1597,IU,earthquake,2018-05-05T00:48:05.789539Z,100_CREW.hdf5,IU.PMG.BH_origid=614570031
353,NaN,NaN,NaN,NaN,10948.0462,2018-05-05T20:26:08.790000Z,NaN,NaN,NaN,NaN,17406.0462,2018-05-05T20:27:13.370000Z,['BH1' 'BH2' 'BHZ'],2.9484277730439654,3.1246423589619967,123.649,5.684,NaN,7.749866634776848,10.0,origid=614570119,-6.2615,142.3662,4.78,2018-05-05T20:24:44.220000Z,PMG,90.0,-9.4047,147.1597,IU,earthquake,2018-05-05T20:24:19.309538Z,100_CREW.hdf5,IU.PMG.BH_origid=614570119
354,NaN,NaN,NaN,NaN,10668.0461,2018-05-07T00:16:52.890000Z,NaN,NaN,NaN,NaN,17438.0461,2018-05-07T00:18:00.590000Z,['BH1' 'BH2' 'BHZ'],11.394706598075702,14.145749375434065,126.144,5.983,NaN,9.231466374332271,10.0,origid=614570281,-5.88,142.2658,4.26,2018-05-07T00:15:23.600000Z,PMG,90.0,-9.4047,147.1597,IU,earthquake,2018-05-07T00:15:06.209539Z,100_CREW.hdf5,IU.PMG.BH_origid=614570281
355,NaN,NaN,NaN,NaN,9746.0462,2018-05-07T02:51:00.790000Z,NaN,NaN,NaN,NaN,15534.0462,2018-05-07T02:51:58.670000Z,['BH1' 'BH2' 'BHZ'],6.513929805000858,6.676314801743582,125.223,5.26,NaN,11.414056381739051,35.0,origid=614570290,-6.3739,142.8063,4.65,2018-05-07T02:49:46.020000Z,PMG,90.0,-9.4047,147.1597,IU,earthquake,2018-05-07T02:49:23.329538Z,100_CREW.hdf5,IU.PMG.BH_origid=614570290
356,6253.0462,2018-05-09T10:13:12.990000Z,NaN,NaN,NaN,NaN,12698.0462,2018-05-09T10:14:17.440000Z,NaN,NaN,NaN,NaN,['BH1' 'BH2' 'BHZ'],7.831479000770058,10.600806989590591,230.493,5.759,NaN,14.136877200948586,57.0,origid=614570513,-5.7399,151.659,3.84,2018-05-09T10:11:49.800000Z,PMG,90.0,-9.4047,147.1597,IU,earthquake,2018-05-09T10:12:10.459538Z,100_CREW.hdf5,IU.PMG.BH_origid=614570513
357,10002.046199999999,2018-05-09T17:39:26.620000Z,NaN,NaN,NaN,NaN,14627.0462,2018-05-09T17:40:12.870000Z,NaN,NaN,NaN,NaN,['BH1' 'BH2' 'BHZ'],2.1254500583359213,2.7410662900555156,168.236,4.143,NaN,13.11444612038014,150.0,origid=614570536,-5.3248,146.3038,4.31,2018-05-09T17:38:26.980000Z,PMG,90.0,-9.4047,147.1597,IU,earthquake,2018-05-09T17:37:46.599538Z,100_CREW.hdf5,IU.PMG.BH_origid=614570536
358,NaN,NaN,NaN,NaN,10310.046199999999,2018-05-10T00:18:03.240000Z,NaN,NaN,NaN,NaN,16730.0462,2018-05-10T00:19:07.440000Z,['BH1' 'BH2' 'BHZ'],11.955341005104806,12.775182778656083,128.05100000000002,5.709,NaN,14.323884608910403,28.0,origid=614570560,-5.8864,142.6057,4.07,2018-05-10T00:16:41.150000Z,PMG,90.0,-9.4047,147.1597,IU,earthquake,2018-05-10T00:16:20.139538Z,100_CREW.hdf5,IU.PMG.BH_origid=614570560
359,NaN,NaN,NaN,NaN,10665.0462,2018-05-31T19:37:49.440000Z,NaN,NaN,NaN,NaN,18225.0462,2018-05-31T19:39:05.040000Z,['BH1' 'BH2' 'BHZ'],10.158774051187383,10.771061120078288,233.939,6.61,NaN,8.82125702849552,40.0,origid=614572624,-5.5196,152.5708,3.52,2018-05-31T19:36:15.370000Z,PMG,90.0,-9.4047,147.1597,IU,earthquake,2018-05-31T19:36:02.789538Z,100_CREW.hdf5,IU.PMG.BH_origid=614572624
360,9080.046199999999,2018-06-01T13:38:50.070000Z,NaN,NaN,NaN,NaN,15477.0462,2018-06-01T13:39:54.040000Z,NaN,NaN,NaN,NaN,['BH1' 'BH2' 'BHZ'],13.239517978175016,11.451291505774597,150.829,5.77,NaN,12.182732065016308,100.0,origid=614619352,-4.3422,144.3123,3.8,2018-06-01T13:37:27.600000Z,PMG,90.0,-9.4047,147.1597,IU,earthquake,2018-06-01T13:37:19.269538Z,100_CREW.hdf5,IU.PMG.BH_origid=614619352
361,NaN,NaN,NaN,NaN,9952.046400000001,2018-06-01T15:15:09.420000Z,NaN,NaN,NaN,NaN,15689.046400000001,2018-06-01T15:16:06.790000Z,['BH1' 'BH2' 'BHZ'],12.059730779675393,10.435577454310458,125.681,5.169,NaN,11.248890952980897,35.0,origid=614619355,-6.3921,142.9061,3.8,2018-06-01T15:13:54.390000Z,PMG,90.0,-9.4047,147.1597,IU,earthquake,2018-06-01T15:13:29.899536Z,100_CREW.hdf5,IU.PMG.BH_origid=614619355
362,NaN,NaN,NaN,NaN,9017.0461,2018-06-01T15:43:38.390000Z,NaN,NaN,NaN,NaN,14652.046100000001,2018-06-01T15:44:34.740000Z,['BH1' 'BH2' 'BHZ'],6.954185291931649,6.565446488236178,125.8,4.987,NaN,8.227920803415092,10.0,origid=614619357,-6.4887,143.0612,3.94,2018-06-01T15:42:23.670000Z,PMG,90.0,-9.4047,147.1597,IU,earthquake,2018-06-01T15:42:08.219539Z,100_CREW.hdf5,IU.PMG.BH_origid=614619357
363,NaN,NaN,NaN,NaN,10117.0462,2018-06-01T16:43:55.790000Z,NaN,NaN,NaN,NaN,16737.0462,2018-06-01T16:45:01.990000Z,['BH1' 'BH2' 'BHZ'],9.10508306976963,8.012247052372762,126.408,5.992000000000001,NaN,13.431009144208147,10.0,origid=614619360,-5.8517,142.2747,4.78,2018-06-01T16:42:26.280000Z,PMG,90.0,-9.4047,147.1597,IU,earthquake,2018-06-01T16:42:14.619538Z,100_CREW.hdf5,IU.PMG.BH_origid=614619360
364,NaN,NaN,NaN,NaN,9431.0462,2018-06-02T12:43:02.970000Z,NaN,NaN,NaN,NaN,13163.046199999999,2018-06-02T12:43:40.290000Z,['BH1' 'BH2' 'BHZ'],10.118628160879092,9.861464306402898,231.771,3.25,NaN,14.864820022091383,35.0,origid=614619443,-7.3901,149.7459,4.04,2018-06-02T12:42:13.500000Z,PMG,90.0,-9.4047,147.1597,IU,earthquake,2018-06-02T12:41:28.659538Z,100_CREW.hdf5,IU.PMG.BH_origid=614619443
365,NaN,NaN,NaN,NaN,9567.0464,2018-06-02T21:19:27.020000Z,NaN,NaN,NaN,NaN,17987.0464,2018-06-02T21:20:51.220000Z,['BH1' 'BH2' 'BHZ'],2.645414411517615,4.145523604717872,233.205,7.678,NaN,13.480091629407859,50.0,origid=614619485,-4.8141,153.3841,4.64,2018-06-02T21:17:37.930000Z,PMG,90.0,-9.4047,147.1597,IU,earthquake,2018-06-02T21:17:51.349536Z,100_CREW.hdf5,IU.PMG.BH_origid=614619485
366,NaN,NaN,NaN,NaN,11580.0461,2018-06-04T16:08:27.900000Z,NaN,NaN,NaN,NaN,19941.0461,2018-06-04T16:09:51.510000Z,['BH1' 'BH2' 'BHZ'],3.79695529148818,3.828956056069089,236.57,7.551,NaN,12.401466724528955,43.0,origid=614619653,-5.2596,153.5404,4.63,2018-06-04T16:06:39.030000Z,PMG,90.0,-9.4047,147.1597,IU,earthquake,2018-06-04T16:06:32.099539Z,100_CREW.hdf5,IU.PMG.BH_origid=614619653
367,9403.0462,2018-06-05T00:19:19.290000Z,NaN,NaN,NaN,NaN,15501.046199999999,2018-06-05T00:20:20.270000Z,NaN,NaN,NaN,NaN,['BH1' 'BH2' 'BHZ'],1.9902753659870787,6.4187482182698155,227.911,5.485,NaN,11.465273007591437,50.0,origid=614619676,-5.7235,151.2814,3.76,2018-06-05T00:17:58.210000Z,PMG,90.0,-9.4047,147.1597,IU,earthquake,2018-06-05T00:17:45.259538Z,100_CREW.hdf5,IU.PMG.BH_origid=614619676
368,NaN,NaN,NaN,NaN,10297.0462,2018-06-05T19:36:07.540000Z,NaN,NaN,NaN,NaN,16027.0462,2018-06-05T19:37:04.840000Z,['BH1' 'BH2' 'BHZ'],9.037238985012843,7.696780668978428,122.358,4.926,NaN,11.822921462062391,10.0,origid=614619735,-6.7731,142.9434,3.81,2018-06-05T19:34:53.430000Z,PMG,90.0,-9.4047,147.1597,IU,earthquake,2018-06-05T19:34:24.569538Z,100_CREW.hdf5,IU.PMG.BH_origid=614619735
369,NaN,NaN,NaN,NaN,11455.046199999999,2018-06-07T18:10:59.570000Z,NaN,NaN,NaN,NaN,15412.0462,2018-06-07T18:11:39.140000Z,['BH1' 'BH2' 'BHZ'],2.0866966875846185,2.887607430388371,175.866,3.3310000000000004,NaN,6.613019324426862,78.0,origid=614619919,-6.0625,146.9158,3.75,2018-06-07T18:10:10.900000Z,PMG,90.0,-9.4047,147.1597,IU,earthquake,2018-06-07T18:09:05.019538Z,100_CREW.hdf5,IU.PMG.BH_origid=614619919
370,10445.0461,2018-06-08T02:34:03.940000Z,NaN,NaN,NaN,NaN,16755.0461,2018-06-08T02:35:07.040000Z,NaN,NaN,NaN,NaN,['BH1' 'BH2' 'BHZ'],2.7426785067949426,3.3653048814836257,227.507,5.816,NaN,10.319981313449317,57.0,origid=614619949,-5.4708,151.5021,4.34,2018-06-08T02:32:37.600000Z,PMG,90.0,-9.4047,147.1597,IU,earthquake,2018-06-08T02:32:19.489539Z,100_CREW.hdf5,IU.PMG.BH_origid=614619949
371,11143.0462,2018-06-08T13:13:49.170000Z,NaN,NaN,11093.0462,2018-06-08T13:13:48.670000Z,15400.0462,2018-06-08T13:14:31.740000Z,NaN,NaN,NaN,NaN,['BH1' 'BH2' 'BHZ'],5.61186827900447,9.136247788778665,184.341,4.009,NaN,12.004751894071868,170.0,origid=614620002,-5.382999999999999,147.4663,4.54,2018-06-08T13:12:48.110000Z,PMG,90.0,-9.4047,147.1597,IU,earthquake,2018-06-08T13:11:57.739538Z,100_CREW.hdf5,IU.PMG.BH_origid=614620002
372,NaN,NaN,NaN,NaN,11926.0462,2018-06-10T01:20:53.840000Z,NaN,NaN,NaN,NaN,18601.0462,2018-06-10T01:22:00.590000Z,['BH1' 'BH2' 'BHZ'],4.212627602145274,6.2178840346781845,236.08900000000003,5.9510000000000005,NaN,15.9164570113521,10.0,origid=614620149,-6.0914,152.1618,4.54,2018-06-10T01:19:24.640000Z,PMG,90.0,-9.4047,147.1597,IU,earthquake,2018-06-10T01:18:54.579538Z,100_CREW.hdf5,IU.PMG.BH_origid=614620149
373,NaN,NaN,NaN,NaN,9964.0462,2018-06-10T09:31:40.890000Z,NaN,NaN,NaN,NaN,14364.0462,2018-06-10T09:32:24.890000Z,['BH1' 'BH2' 'BHZ'],5.353695360365161,8.522433938763866,161.438,3.924,NaN,11.999535646731857,50.0,origid=614620179,-5.6634,145.8938,3.72,2018-06-10T09:30:42.770000Z,PMG,90.0,-9.4047,147.1597,IU,earthquake,2018-06-10T09:30:01.249538Z,100_CREW.hdf5,IU.PMG.BH_origid=614620179
374,NaN,NaN,NaN,NaN,4516.046200000001,2018-06-10T14:59:05.940000Z,NaN,NaN,NaN,NaN,8359.0462,2018-06-10T14:59:44.370000Z,['BH1' 'BH2' 'BHZ'],0.4694187508197538,2.3613896214325623,173.07,3.379,NaN,5.654385908929067,52.0,origid=614620201,-6.0306,146.7461,4.61,2018-06-10T14:58:15.840000Z,PMG,90.0,-9.4047,147.1597,IU,earthquake,2018-06-10T14:58:20.779538Z,100_CREW.hdf5,IU.PMG.BH_origid=614620201
375,NaN,NaN,NaN,NaN,9411.0462,2018-06-11T09:28:29.720000Z,NaN,NaN,NaN,NaN,14986.0462,2018-06-11T09:29:25.470000Z,['BH1' 'BH2' 'BHZ'],6.290227859973637,6.362907047726653,158.225,5.113,NaN,11.657600755898967,38.0,origid=614620272,-4.6306,145.2391,3.83,2018-06-11T09:27:14.590000Z,PMG,90.0,-9.4047,147.1597,IU,earthquake,2018-06-11T09:26:55.609538Z,100_CREW.hdf5,IU.PMG.BH_origid=614620272
376,10109.0462,2018-06-13T18:47:32.590000Z,NaN,NaN,NaN,NaN,17782.0462,2018-06-13T18:48:49.320000Z,NaN,NaN,NaN,NaN,['BH1' 'BH2' 'BHZ'],13.306349112424526,11.247347254575475,226.71,7.002000000000002,NaN,12.996999410934706,58.0,origid=614620510,-4.5983,152.3185,4.22,2018-06-13T18:45:49.540000Z,PMG,90.0,-9.4047,147.1597,IU,earthquake,2018-06-13T18:45:51.499538Z,100_CREW.hdf5,IU.PMG.BH_origid=614620510
377,5620.0461,2018-06-15T03:32:53.640000Z,NaN,NaN,NaN,NaN,9715.046100000001,2018-06-15T03:33:34.590000Z,NaN,NaN,NaN,NaN,['BH1' 'BH2' 'BHZ'],0.23678497031346127,3.8371588304098254,173.5,3.407,NaN,10.79112373108472,62.566199999999995,origid=614620620,-5.9997,146.7684,4.83,2018-06-15T03:32:02.710000Z,PMG,90.0,-9.4047,147.1597,IU,earthquake,2018-06-15T03:31:57.439539Z,100_CREW.hdf5,IU.PMG.BH_origid=614620620
378,NaN,NaN,NaN,NaN,11028.0461,2018-06-15T05:52:58.390000Z,NaN,NaN,NaN,NaN,17476.0461,2018-06-15T05:54:02.870000Z,['BH1' 'BH2' 'BHZ'],9.27984607820995,8.42533583086767,124.381,5.464,NaN,10.672693735553302,35.0,origid=614620630,-6.3239,142.5913,3.83,2018-06-15T05:51:40.500000Z,PMG,90.0,-9.4047,147.1597,IU,earthquake,2018-06-15T05:51:08.109539Z,100_CREW.hdf5,IU.PMG.BH_origid=614620630
379,10007.0462,2018-06-15T16:27:51.560000Z,NaN,NaN,NaN,NaN,17465.0462,2018-06-15T16:29:06.140000Z,NaN,NaN,NaN,NaN,['BH1' 'BH2' 'BHZ'],11.153530106045418,9.631925488262223,227.478,7.105,NaN,10.438585548187286,58.0,origid=614620671,-4.5992,152.4597,4.31,2018-06-15T16:26:06.590000Z,PMG,90.0,-9.4047,147.1597,IU,earthquake,2018-06-15T16:26:11.489538Z,100_CREW.hdf5,IU.PMG.BH_origid=614620671
